PropID,Boro,Community Board,Council District,Garden Name,Address,Size,Jurisdiction,NeighborhoodName,Cross Streets,Latitude,Longitude,Postcode,Census Tract,BIN,BBL,NTA,gardenKey
,M,M03,2.0,11 BC Serenity Garden,626 East 11th Street,0.054000000000000006,DPR,East Village,Avenues B & C,40.727123999999996,-73.978677,10009.0,28.0,1000000.0,1003930020.0,Lower East Side,42500001
,B,B08,36.0,1100 Bergen Street Community Garden,1101 & 1105 Bergen Street,0.207,PRI,Crown Heights,Nostrand & New York Avenues,,,,,,,,42500002
M382,M,M11,9.0,110th Street Block Association,1651 Madison Avenue,0.043,DPR,East Harlem,Active,40.796295,-73.94753299999999,10029.0,17402.0,1000000.0,1016160023.0,East Harlem South,42500003
M331,M,M11,8.0,117th Street Community Garden,172 E 117th Street,0.08,DPR,East Harlem,Active,40.798976,-73.940376,10035.0,182.0,1089914.0,1016440046.0,East Harlem North,42500004
,M,M03,2.0,11th Street Community Garden,422 East 11th Street,0.054000000000000006,TPL,East Village,1st Avenue & Avenue A,40.729079,-73.983327,10009.0,34.0,1000000.0,1004380019.0,East Village,42500005
,X,X12,15.0,211th Street Block Association.,Carlisle Place,0.182,NYRP,,At E. 211th Street,,,,,,,,42500006
,X,X06,15.0,2120 Mapes Avenue HDFC,2124 Mapes Avenue,0.151,TPL,,At E. 181st Street,40.847215999999996,-73.885018,10460.0,36501.0,2000000.0,2031110007.0,East Tremont,42500007
B535,B,B05,42.0,400 Montauk Avenue Block Association. (Ismael Vega y Amigos),New Lots Avenue,0.091,DPR,East New York,Active,,,,,,,,42500008
M313A,M,M03,1.0,5th Street Slope Garden Club,626-27 East 5th Street,0.031,DPR,East Village,Active,40.723433,-73.980995,10009.0,2601.0,1075625.0,1003870020.0,Lower East Side,42500009
,B,B07,38.0,6/15 Green,274 15th Street,0.287,TPL,Park Slope,corner of 6th Avenue & 15th Street,40.664706,-73.987554,11215.0,141.0,3000000.0,3010480034.0,Park Slope-Gowanus,42500010
,B,B07,0.0,64th Street Community Garden,64th Street,,DOT,Sunset Park,West of 4th Avenue,,,,,,,,42500011
M313,M,M03,1.0,6BC Botanical Garden,624-628 E 6th Street,0.171,DPR,East Village,Active,40.724036,-73.98056899999999,10009.0,2601.0,1000000.0,1003870121.0,Lower East Side,42500012
M293,M,M03,2.0,6th Street & Avenue B Garden,78-92 Avenue B,0.315,DPR,East Village,Active,40.724031,-73.98198599999999,10009.0,32.0,1000000.0,1004010039.0,East Village,42500013
B438,B,B16,41.0,700 Decatur Street Block Association,700 Decatur Street,0.114,DPR,Bed-Stuy,Active,40.683541,-73.915121,11233.0,373.0,3040656.0,3015060032.0,Ocean Hill,42500014
X351,X,X03,17.0,811 Family and Friends Association,809 Courtlandt Avenue,0.063,DPR,,Active,40.823065,-73.91645,10451.0,69.0,2000000.0,2024180022.0,Melrose South-Mott Haven North,42500015
Q495,Q,Q03,21.0,97th Street Block Association,33-28 97th Street,0.177,DPR,Corona,Active,40.756409000000005,-73.87122,11368.0,375.0,4000000.0,4017110021.0,North Corona,42500016
M312,M,M03,2.0,9th Street Community Garden & Park,703 East 9th Street,0.39,DPR,East Village,Active,40.725211,-73.977776,10009.0,28.0,1000000.0,1003790063.0,Lower East Side,42500017
B507,B,B03,41.0,A Better Community Garden,762-764 Herkimer Place/13-21 Hunterfly,0.044000000000000004,DPR,Bed-Stuy,Active,,,,,,,,42500018
X350,X,X03,16.0,A. Badillo Community Rose Garden,924 Melrose Avenue,0.064,DPR,Melrose,Active,40.82513,-73.913329,10451.0,141.0,2000000.0,2023840009.0,Morrisania-Melrose,42500019
,B,B04,37.0,Aberdeen Street II Garden Projects,Aberdeen Street,0.253,NYRP,,,,,,,,,,42500020
B533,B,B16,,Abib Newborn,495 Osborn Street,0.249,DPR,East New York,Active,40.659528,-73.906203,11212.0,920.0,3000000.0,3036170013.0,Brownsville,42500021
,X,X09,18.0,Adlai E. Stevenson High School-Ecological Garden,1980 Lafayette Avenue/Stickball Avenue,,DOE,,Lafayette & Stickball Avenue,,,,,,,,42500022
,M,M03,2.0,Alberts Garden,16-18 East 2nd Street,0.07,TPL,East Village,Bowery & 2nd Avenue,40.725347,-73.99132,10003.0,3602.0,1000000.0,1004580041.0,East Village,42500023
B439,B,B03,34.0,All People's Church of the Apostolic Faith Community Garden,149 Tompkins Avenue,0.064,DPR,Bed-Stuy,Active,40.694344,-73.946088,11206.0,25901.0,3000000.0,3017600001.0,Bedford,42500024
,M,M03,2.0,"All Peoples Garden, Inc.",293-295 East 3rd Street,0.099,TPL,East Village,Avenues C & D,40.721396,-73.979916,10009.0,2601.0,1000000.0,1003730059.0,Lower East Side,42500025
B409,B,B06,39.0,Amazing Garden,261-265 Columbia Street,0.10300000000000001,DPR,Red Hook,Active,40.683251,-74.003548,11231.0,51.0,3000000.0,3003480003.0,Carroll Gardens-Columbia Street-Red Hook,42500026
B440,B,B16,41.0,Amboy St. Garden,199 Amboy Street,0.391,DPR,,Active,40.665633,-73.913605,11212.0,902.0,3081400.0,3035400007.0,Brownsville,42500027
B441,B,B03,36.0,American Heart,122 Hart Street,0.05,DPR,Bed-Stuy,Active,40.693378,-73.946915,11206.0,261.0,3000000.0,3017710029.0,Bedford,42500028
X339,X,X03,16.0,Angie Lee-Gonzalez & Luis Gonzalez Garden,1768 Bryant Avenue,0.131,DPR,,Active,40.83652,-73.885069,10460.0,161.0,2117995.0,2029980170.0,Crotona Park East,42500029
,X,X05,15.0,Anthony Avenue Garden,2078 Anthony Avenue,0.054000000000000006,TPL,,E. 180th Street & Burnside Avenue,40.852889000000005,-73.901885,10457.0,381.0,2000000.0,2031560055.0,Mount Hope,42500030
Q470,Q,X01,,Astoria Residents Reclaiming Our World (ARROW),35th St. Bet. 35th & 36th Aves,0.287,DPR,,,,,,,,,,42500031
B443,B,B05,37.0,Atkins Gardeners,213 Atkins Avenue,0.068,DPR,East New York,Active,40.673772,-73.878795,11208.0,1194.0,3256563.0,3040230006.0,East New York,42500032
,M,M03,1.0,Auxiliary Services for High Schools @ P.S. 91,198 Forsyth Street,0.051,DOE,Lower East Side,Stanton Street,40.72252,-73.990728,10002.0,3601.0,1005626.0,1004220072.0,Chinatown,42500033
M342,M,M03,2.0,Avenue B Community Garden Association,200 Avenue B,0.05,DPR,East Village,Active,40.728307,-73.978864,10009.0,34.0,1005220.0,1004060037.0,East Village,42500034
Q486,Q,Q12,28.0,B.C.C.A. Mini-Park and Garden,150-14 115th Drive,0.092,DPR,,Active,40.683535,-73.792211,11434.0,272.0,4264367.0,4121920014.0,Baisley Park,42500035
,Q,Q12,,Back To Eden,144-29 Lakewood Avenue,,TPL,,At Inwood St,40.689588,-73.80359399999999,11435.0,196.0,,,South Jamaica,42500036
B410,B,B06,39.0,Backyard Garden,61-73 Hamilton Avenue,0.225,DPR,Red Hook,Active,40.682842,-74.006259,11231.0,51.0,3000000.0,3003520010.0,Carroll Gardens-Columbia Street-Red Hook,42500037
,X,X07,11.0,Bainbridge Avenue Garden,2974-2980 Bainbridge Avenue,0.066,TPL,,E. 201st Street & Bedford Park Boulevard,40.870996000000005,-73.884326,10458.0,415.0,2016756.0,2032920084.0,Bedford Park-Fordham North,42500038
,X,X06,,Bathgate Garden,1836 Bathgate Avenue,,NYRP,,"E 175th & E 176th, just North of Cross Bronx",40.84506,-73.89801800000001,10457.0,395.0,2000000.0,2029230012.0,Claremont-Bathgate,42500039
R137A,R,R03,3.0,Bayview Habitat,Bayview Terrace,0.276,DPR,,,,,,,,,,42500040
,Q,Q14,31.0,Beach Channel High School,100-00 Beach Channel Drive,,DOE,Far Rockaway,At Beach 100 Street,40.586065999999995,-73.822624,11694.0,94201.0,4303773.0,4161670099.0,Breezy Point-Belle Harbor-Rockaway Park-Broad Channel,42500041
,B,B03,41.0,Bed-Stuy Community Garden (Lola Bryant Community Garden),93-95 Malcolm X Avenue,0.073,NYRP,Bed-Stuy,Greene & Lexington Avenues,,,,,,,,42500042
,B,B03,,Bed-Stuy Farm,404 Decatur Street,,DPR/PRI,,Btwn Malcolm X & Patchen Avenue,40.682165999999995,-73.927115,11233.0,381.0,3000000.0,3016820058.0,Crown Heights North,42500043
,X,X06,15.0,Belmont Little Farmers,2483 Belmont Avenue,0.1,TPL,Belmont,E. 189th Street & E. Fordam Rd.,40.856921,-73.884462,10458.0,389.0,,,Belmont,42500044
B444,B,B01,34.0,Berry Street Garden,301-303 Berry Street,0.13699999999999998,DPR,Williamsburg,Active,40.713449,-73.963827,11249.0,551.0,3000000.0,3024170004.0,North Side-South Side,42500045
,X,X04,,Bettes Rose Garden,Teller Avenue,,NYRP,,E 164th & E 165th,,,,,,,,42500046
B446,B,B05,42.0,Big Red Garden,436 Van Siclen Avenue,0.043,DPR,East New York,Active,40.669128,-73.889416,11207.0,1160.0,3000000.0,3040410052.0,East New York,42500047
,X,X12,18.0,Bissel Gardens,in Bissel Street,0.08,MTA,,from Barnes to Baychester Avenues,,,,,,,,42500048
,M,M11,,Black Veterans For Social Justice,22 East 119th Street,,HRA,East Harlem,5th & Madison Avenues,40.802263,-73.944274,10035.0,184.0,1076434.0,1017450005.0,East Harlem North,42500049
Q487,Q,Q12,28.0,Block Association #81,Inwood Street,0.115,DPR,Jamaica,Active,,,,,,,,42500050
M333,M,M10,7.0,Bradhurst Avenue Tenants Association,Bradhurst Avenue,0.092,DPR,Hamilton Heights,Active,,,,,,,,42500051
,B,B02,,Bridge Plaza Community Garden,Bridge St,,NYRP,,Corner of Bridge St & Concord St,,,,,,,,42500052
,B,B02,,Bridge Plaza Court,Bridge Plaza Court,,DPR/DOT,,Concord St & Nassau St,,,,,,,,42500053
M334,M,M03,2.0,Brisas Del Caribe,237 E 3rd Street,0.06,DPR,East Village,Active,40.722296,-73.98204799999999,10009.0,2601.0,1000000.0,1003860052.0,Lower East Side,42500054
X246,X,X01,,Brook Park,494 East 141st Street,,DPR,,Active,40.809829,-73.918667,10454.0,39.0,2000000.0,2022850042.0,Mott Haven-Port Morris,42500055
B421,B,B02,35.0,Brooklyn Bears/Carlton Avenue Garden,397-401 Carlton Avenue,0.14,DPR,Clinton Hill,Active,40.685731,-73.971356,11238.0,179.0,3000000.0,3019570023.0,Fort Greene,42500056
,B,B02,33.0,Brooklyn Bears/Pacific Street Garden,Flatbush Avenue,,TPL,Park Slope,Atlantic Avenue & Pacific Street,,,,,,,,42500057
B422,B,B02,33.0,Brooklyn Bears/Rockwell Place Garden,65-73 Flatbush Avenue,0.08199999999999999,DPR,Downtown Brooklyn,Active,40.687133,-73.979674,11217.0,33.0,,,Fort Greene,42500058
,B,B02,35.0,Brooklyn's Finest Garden,48 Lefferts Place,0.057,DPR,,Street James Pl & Grand Avenue,40.681526,-73.961901,11238.0,201.0,3000000.0,3020180035.0,Clinton Hill,42500059
X315,X,X02,17.0,Bryant Hill Community Garden,899-999 Bryant Avenue,0.34,DPR,Hunt's Point,Active,40.819878,-73.886951,10474.0,11502.0,2000000.0,2027610102.0,Hunts Point,42500060
B447,B,B05,42.0,C.A.U.S.A. Festival Garden,790 Blake Avenue,0.168,DPR,East New York,Active,40.668623,-73.889471,11207.0,1160.0,3000000.0,3040570031.0,East New York,42500061
,X,X05,14.0,C.E.S. 109 - The Angelo Sanchez Inspirational Garden,1771 Popham Avenue,,DOE,,,40.851414,-73.918533,10453.0,20502.0,2094549.0,2028770393.0,University Heights-Morris Heights,42500062
,X,X04,16.0,C.E.S. 126 - Literacy Garden,175 W 166th Street,,DOE,,Ogden Avenue & MLK Jr. Boulevard,40.835784000000004,-73.928324,10452.0,199.0,2003495.0,2025260083.0,Highbridge,42500063
,X,X03,0.0,C.E.S. 55,450 St. Pauls Place,,DOE,Mt. Eden,Park & Washington Avenues,40.836403999999995,-73.90501400000001,10456.0,14702.0,2009463.0,2029020001.0,Claremont-Bathgate,42500064
,X,X04,16.0,C.E.S. 73,1020 Anderson Avenue,,TPL/DOE,,E 164th & E. 165th Streets.,40.832706,-73.926838,10452.0,189.0,2003051.0,2025040082.0,Highbridge,42500065
X340,X,X03,16.0,C.S. 134X - Community Improvement Garden,1313-1311 Bristow Street,0.161,DPR,Morrisania,Active,40.831035,-73.89477,10459.0,153.0,,,Crotona Park East,42500066
,M,M10,9.0,C.S. 154 - Our Children's Garden,250 W 127th Street,0.066,DOE,,Frederick Douglass & Adam Clayton Powell Boulevards,40.810928000000004,-73.948938,10027.0,224.0,1058671.0,1019320010.0,Central Harlem North-Polo Grounds,42500067
,M,M10,9.0,C.S. 46 - Tappan School Garden of Heroes,2987 Frederick Douglass Boulevard,,DOE,,At Harlem River Drive,,,,,,,,42500068
,X,X06,15.0,C.S. 57 - Garden of Hope,2111 Crotona Avenue,,DOE,,E. 180th & E. 181st Streets.,40.848471999999994,-73.888561,10457.0,373.0,2012359.0,2030810026.0,East Tremont,42500069
,X,X06,0.0,C.S. 6 - West Farms School Garden,1000 East Tremont Avenue,,DOE,Tremont,Vyse & Bryant Avenues,40.840755,-73.88170699999999,10460.0,359.0,2010892.0,2030050010.0,East Tremont,42500070
,X,X03,15.0,C.S. 61 - The  Francisco Oller School,1550 Crotona  Park East,0.055,DOE,,At Charlotte Street,40.836575,-73.89281700000001,10460.0,153.0,2009865.0,2029390045.0,Crotona Park East,42500071
,Q,Q13,27.0,Cambria Heights Civic Association,227th Street,0.207,TPL,Cambria Heights,At Linden Boulevard,,,,,,,,42500072
M359,M,M03,2.0,CAMPOS,640-644 East 12th Street,0.11900000000000001,DPR,East Village,Active,40.727318,-73.977194,10009.0,28.0,1000000.0,1003940029.0,Lower East Side,42500073
M388,M,M11,9.0,Carolina Garden / formerly 116th Street Block Association,122nd Street,0.063,DPR,East Harlem,Active,,,,,,,,42500074
,X,X12,0.0,Carpenter Avenue Community Garden,in East 239th Street,,DOT,Wakefield,At Carpenter Avenue,,,,,,,,42500075
M385,M,M10,9.0,Carrie McCracken Garden/TRUCE,143-145 St. Nicholas Avenue,0.059000000000000004,DPR,,Active,40.804435999999995,-73.95274599999999,10026.0,218.0,1000000.0,1019230020.0,Central Harlem South,42500076
,B,B06,30.0,Carroll Street Community Garden (Our Lady of Peace Church or Gil Hodges Garden),534 Carroll Street,0.069,NYRP,,,40.676396000000004,-73.984555,11215.0,119.0,3000000.0,3004560014.0,Park Slope-Gowanus,42500077
,M,M11,8.0,Carver Community Garden,236-242 East 124th Street,0.275,TPL,East Harlem,2nd & 3rd Avenues,40.802632,-73.935399,10035.0,194.0,1000000.0,1017880034.0,East Harlem North,42500078
,X,X01,17.0,Cauldwell Youth Garden,551 Cauldwell Avenue,0.11900000000000001,TPL,Mott Haven,E. 149th Street & Westchester Avenue,40.814133,-73.910779,10455.0,73.0,2000000.0,2026230058.0,Melrose South-Mott Haven North,42500079
B448,B,B03,36.0,Cedar Tree Garden,305 Greene Avenue,0.177,DPR,,Active,40.687514,-73.958923,11238.0,233.0,3000000.0,3019530070.0,Bedford,42500080
,B,B03,41.0,Central Bainbridge Block Association Inc.,277-279 Bainbridge Street,0.11199999999999999,TPL,Bed-Stuy,Ralph & Patchen Avenues,40.681591,-73.925688,11233.0,381.0,3047698.0,3016830091.0,Crown Heights North,42500081
,M,M11,9.0,Chenchitas Group Garden,1691-93 Madison Avenue,0.053,HPD,East Harlem,E. 111th & E. 112th Streets.,40.797308,-73.946792,10029.0,17402.0,1000000.0,1016170051.0,East Harlem South,42500082
,M,M10,9.0,Childrens Aid Soc. Garden (The Sowers),21 West 118th Street,0.057,PRI,,5th & Lenox Avenues,40.802366,-73.94641999999999,10026.0,190.0,1083962.0,1017170022.0,Central Harlem South,42500083
B224A,B,B03,41.0,Citizens for a Better Community,127 Patchen Avenue,0.299,DPR,Bed-Stuy,Active,40.687548,-73.926979,11221.0,385.0,3000000.0,3016430001.0,Stuyvesant Heights,42500084
,M,M02,3.0,City-As-School H.S.,16 Clarkson Street,0.11,DOE,West Village,Hudson & Varick Streets.,40.729411999999996,-74.006148,10014.0,67.0,1009757.0,1005810054.0,West Village,42500085
B450,B,B05,37.0,Clara's Garden,573-579 Glenmore Avenue,0.043,DPR,East New York,Active,40.674214,-73.88914799999999,11207.0,1152.0,3088528.0,3039790033.0,East New York,42500086
X321,X,X04,16.0,Claremont Neighborhood Garden,1280 Teller Avenue,0.19,DPR,,Active,40.834051,-73.91055300000001,10456.0,17701.0,2000000.0,2024310020.0,East Concourse-Concourse Village,42500087
,B,B03,36.0,Classon/Fulgate Block Association,474 Classon Avenue,0.115,TPL,,Madison & Monroe Streets,40.683943,-73.95903299999999,11238.0,231.0,3414490.0,3019840062.0,Clinton Hill,42500088
,X,X04,16.0,Clay Avenue Community Garden,1328-1332 Clay Avenue,0.033,NYRP,,E. 169th & E. 170th Streets,40.835309,-73.908936,10456.0,17702.0,2000000.0,2028870012.0,East Concourse-Concourse Village,42500089
M374,M,M10,9.0,Clayton Williams Garden,303 W 126th Street,0.057,TPL/DPR,,Active,40.810959000000004,-73.950928,10027.0,215.0,1000000.0,1019530028.0,Central Harlem North-Polo Grounds,42500090
B526,B,B05,37.0,Cleveland Street Vegetable Garden,433-435 Cleveland Street,0.057,DPR,East New York,Active,40.674162,-73.884339,11208.0,1166.0,3088902.0,3040010003.0,East New York,42500091
,B,B02,35.0,Clifton Place Garden,289 Grand Avenue,0.086,TPL,,Clifton Pl. & Greene Avenue,40.687639000000004,-73.962648,11238.0,231.0,3000000.0,3019520003.0,Clinton Hill,42500092
B451,B,B03,36.0,Clifton Place Memorial Park & Garden,1031-35 Bedford Avenue,0.165,DPR,,Active,40.688603,-73.954945,11216.0,243.0,3000000.0,3017930009.0,Bedford,42500093
,X,X06,15.0,Clinton Avenue Block Association,757 East 179th Street,0.115,NYRP,,N/W corner of Prospect Avenue & 179th Street,40.845858,-73.888049,10457.0,371.0,2000000.0,2030940063.0,East Tremont,42500094
M281,M,M04,3.0,Clinton Community Garden,436 West 48th Street,0.35,DPR,Hell's Kitchen,Active,40.762716999999995,-73.991026,10036.0,127.0,1000000.0,1010570050.0,Clinton,42500095
,X,X04,16.0,College Avenue GreenThumb,1420 College Avenue,0.43,DPR,,E. 170th & E. 171st Streets,40.838033,-73.91027,10456.0,225.0,2000000.0,2027840004.0,East Concourse-Concourse Village,42500096
,M,M10,,Colonial Gardeners,304-306 West 150th St,,PRI,,Bradhurst Avenue & Frederick Douglass Boulevard,40.826069,-73.939785,10039.0,259.0,1000000.0,1020450098.0,Central Harlem North-Polo Grounds,42500097
M335,M,M03,1.0,Committee of Poor Peoples of the LES Community Garden,171 Stanton Street,0.057999999999999996,DPR,Lower East Side,Active,40.72017,-73.984289,10002.0,2201.0,1000000.0,1003440148.0,Lower East Side,42500098
B520,B,B04,34.0,Concerned Citizens of Grove Street,72-74 Grove Street,0.11,DPR,Bushwick,Active,40.692238,-73.92181,11221.0,399.0,3000000.0,3033220008.0,Bushwick South,42500099
B452,B,B05,37.0,Concerned Residents of Barbey Street,606 Glenmore Avenue,0.057,DPR,,Active,40.674396,-73.887803,11207.0,1150.0,3000000.0,3039970010.0,East New York,42500100
B453,B,B05,37.0,Concerned Residents of Montauk Avenue,214 Montauk Avenue,0.091,DPR,East New York,Active,40.673887,-73.87789000000001,11208.0,1194.0,,,East New York,42500101
,M,M08,0.0,Life Sciences High School,320 96th Street NY NY 10128,,DOE,Upper East Side,1st & 2nd Avenue,,,,,,,,42500102
,X,X06,15.0,Concerned Tenants of Daly Avenue,2139 Daly Avenue,0.179,TPL,,181st Street & Bronx Parkway South,40.845582,-73.880943,10460.0,363.0,2000000.0,2031250035.0,East Tremont,42500103
,B,B04,37.0,Contented Hart Garden,1475 Bushwick Avenue,0.057,TPL,Bushwick,Pilling & Granite Streets.,40.683411,-73.907424,11207.0,403.0,3000000.0,3034570003.0,Bushwick South,42500104
B454,B,B04,40.0,Cooper Street Block Buster Block Association.,41 Cooper Street,0.16,DPR,Bushwick,Active,40.684528,-73.91054100000001,11207.0,403.0,3000000.0,3034320040.0,Bushwick South,42500105
,B,B04,37.0,Cooper Street Gardeners,34 Cooper Street,0.078,NYRP,,Bushwick Avenue & Broadway,40.684311,-73.910725,11207.0,403.0,3000000.0,3034380024.0,Bushwick South,42500106
Q474A,Q,Q04,21.0,Corona Taxpayers Association,52-02 102nd  Street,0.18,DPR,Corona,Active,40.741788,-73.859801,11368.0,44301.0,4000000.0,4019320031.0,Corona,42500107
X338,X,X01,17.0,Courtlandt Avenue Association,364-366 East 158th Street,0.171,DPR,Melrose,Active,40.822689000000004,-73.91614,10451.0,69.0,2000000.0,2024040009.0,Melrose South-Mott Haven North,42500108
M315,M,M03,2.0,Creative Little Garden,530 East 6th Street,0.06,DPR,East Village,Active,40.72511,-73.98311899999999,10009.0,32.0,1000000.0,1004010025.0,East Village,42500109
,X,X05,,Creston Jungle Playground,2242 Creston Avenue,,NYRP,,E 182nd & E 183rd,40.856775,-73.90151800000001,10453.0,23704.0,2000000.0,2031630005.0,Fordham South,42500110
B455,B,B05,37.0,Crystal Street Block Association Community Garden,Crystal Street,0.344,DPR,East New York,Active,,,,,,,,42500111
,Q,Q14,31.0,Culinary Kids Garde (Seagirt Community Garden),3003 Seagirt Boulevard.,0.138,HPD,Far Rockaway,B30th & B31st,40.595964,-73.763133,11691.0,992.0,4000000.0,4158060004.0,Hammels-Arverne-Edgemere,42500112
,Q,Q12,27.0,"Curtis ""50 Cent"" Jackson Community Garden",11709 165th Street,0.083,NYRP,,At Foch Boulevard,40.684574,-73.78111,11434.0,284.0,4000000.0,4123560021.0,Baisley Park,42500113
,B,B02,33.0,David Foulke Community Garden,248-250 Bergen Street,0.073,TPL,Boerum Hill,Bond & Nevins Streets.,40.684364,-73.984438,11217.0,71.0,3000000.0,3003870038.0,DUMBO-Vinegar Hill-Downtown Brooklyn-Boerum Hill,42500114
,X,X07,14.0,Davidson Avenue Community Garden,2385 Davidson Avenue,0.115,TPL,,W. 184th Street & W. Fordham Rd.,40.861379,-73.903254,10468.0,253.0,,,Kingsbridge Heights,42500115
M336,M,M03,2.0,De Colores Community Garden,311-313 E 8th Street,0.066,DPR,East Village,Active,40.725296,-73.979821,10009.0,2602.0,1000000.0,1003910054.0,Lower East Side,42500116
,B,B04,37.0,Decatur Street Community Garden,1052 Decatur Street,0.057,NYRP,,Bushwick & Evergreen Avenues,40.685984999999995,-73.910265,11207.0,403.0,3000000.0,3034330014.0,Bushwick South,42500117
X179A,X,X02,17.0,Demera/Santiago Garden,941-943 Avenue St. John,0.126,DPR,,Not GreenThumb,40.815228999999995,-73.902569,10455.0,83.0,2000000.0,2026850030.0,Longwood,42500118
M323,M,M11,8.0,Diamante Garden (Block and School Association),306-310 East 118th Street,0.18600000000000003,DPR,East Harlem,Active,40.798107,-73.936371,10035.0,188.0,1000000.0,1016890047.0,East Harlem North,42500119
M337,M,M03,2.0,Dias y Flores,520-522 East 13th Street,0.11900000000000001,DPR,East Village,Active,40.729306,-73.979885,10009.0,34.0,1000000.0,1004060016.0,East Village,42500120
,M,M12,7.0,Dorothy K. McGowan Memorial Garden,513 W 158th Street,0.045,TPL,Washington Heights,Amsterdam Avenue & Broadway,40.833766,-73.942217,10032.0,245.0,1000000.0,1021170046.0,Washington Heights South,42500121
M302,M,M11,,Dream Street Park,223 - 231 E. 124 St.,0.252,DPR,,,40.802741999999995,-73.935612,10035.0,242.0,1000000.0,1017890011.0,East Harlem North,42500122
X271A,X,X04,16.0,Dred Scott Bird Sanctuary Garden and Park,E 169th Street,0.473,DPR,,Active,,,,,,,,42500123
,X,X06,15.0,Drew Garden - I.S. 167,East Tremont Avenue,,DOT,,west of E. 177th Street & BX River,,,,,,,,42500124
,Q,Q12,28.0,Dunton Block and Civic Association. Inc.,Remington Street,0.551,TPL,,At Shore Avenue,,,,,,,,42500125
,M,M12,10.0,Dyckman Valley School - P.S. 152,93 Nagle Avenue,0.09,DOE,,Ellwood & Sicles Streets.,40.860412,-73.927936,10040.0,283.0,1064149.0,1021730001.0,Washington Heights North,42500126
M324,M,M03,2.0,Earth People,333-335 East 8th Street,0.106,DPR,East Village,Active,40.725021999999996,-73.97917199999999,10009.0,2602.0,1000000.0,1003910043.0,Lower East Side,42500127
,M,M03,1.0,Earth School - P.S.64,600 East 6th Street,0.271,DOE,East Village,At Avenue B,40.72438,-73.98138,10009.0,2601.0,1004627.0,1003870001.0,Lower East Side,42500128
,M,M11,,East 103rd Street Community Garden,105 E 103rd Street,,NYRP,,Lexington & Park Avenues,40.790817,-73.948859,10029.0,166.0,1000000.0,1016310002.0,East Harlem South,42500129
,X,X01,8.0,East 143rd Street Community Garden (Bronx Community & Cultural Garden or North Church Garden),401 E 143rd Street,0.20800000000000002,NYRP,,At Willis,40.812172,-73.92033599999999,10454.0,41.0,2000000.0,2022880001.0,Mott Haven-Port Morris,42500130
B414,B,B06,15.0,East 4th St. Com. Gar.(Windsor Terrace Kensington Veterans Mem.),171 E 4th Street,0.057,DPR,Kensington,Active,40.648198,-73.977358,11218.0,500.0,,,Windsor Terrace,42500131
,B,B05,37.0,East End Community Garden,530-2 Glenmore Avenue / 260 Van Siclen Avenue,0.161,DPR,East New York,At Van Siclen Avenue,,,,,,,,42500132
,M,M11,8.0,East Harlem Community Garden,429-433 East 117th Street,0.142,TPL,East Harlem,1st & Pleasant Avenues,40.796357,-73.934119,10035.0,178.0,1000000.0,1017110013.0,East Harlem North,42500133
B458,B,B09,35.0,Eastern Parkway Coalition,"Eastern Pkwy.,W/O Franklin",0.44,DPR,Crown Heights,Active,,,,,,,,42500134
M319B,M,M09,0.0,Edgecomb Avenue Garden Park Sanctuary,339-341 Edgecomb Avenue,0.11199999999999999,DPR,,Active,40.826462,-73.941811,10031.0,231.0,1000000.0,1020530099.0,Hamilton Heights,42500135
X341,X,X03,17.0,Edith Community Garden (830 Elton Tnts. Assoc.),836 Elton Avenue,0.11599999999999999,DPR,Melrose,Active,40.8227,-73.912729,10451.0,141.0,,,Morrisania-Melrose,42500136
M316,M,M10,21.0,Edward P. Bowman Park,52 W 129th Street,0.046,DPR,West Harlem,Active,40.809753,-73.94230999999999,10027.0,208.0,1000000.0,1017260064.0,Central Harlem North-Polo Grounds,42500137
X313,X,X01,17.0,El Batey Borincano,811-815 Eagle Avenue,0.17,DPR,Melrose,Active,40.820572999999996,-73.909101,10456.0,75.0,2117523.0,2026180039.0,Melrose South-Mott Haven North,42500138
X323,X,X06,15.0,El Batey de Dona Provi,504 East 178th Street,0.13,DPR,,Active,40.847974,-73.896315,10457.0,395.0,,,Claremont-Bathgate,42500139
,M,M11,8.0,El CataÃ±o Garden,169 East 110th Street,0.057,NYRP,East Harlem,3rd & Lexington Avenues,40.794391,-73.9434,10029.0,172.0,1087779.0,1016387501.0,East Harlem South,42500140
X339,X,X01,17.0,El Flamboyan,Tinton Avenue,0.402,DPR,,Active,,,,,,,,42500141
X277,X,X01,17.0,El Girasol,624-638 East 138th Street,0.085,DPR,,Active,40.806094,-73.915774,10454.0,2701.0,2000000.0,2025500031.0,Mott Haven-Port Morris,42500142
X277,X,X01,17.0,El Girasol,624-638 East 138th Street,0.085,HPD,,Active,40.806094,-73.915774,10454.0,2701.0,2000000.0,2025500031.0,Mott Haven-Port Morris,42500143
M268A,M,M03,2.0,El Jardin del Paraiso,706-718 East 5th Street /311-321 East 4th Street,0.73,DPR,East Village,Active,,,,,,,,42500144
B424,B,B01,30.0,El Puente: EspÃ­ritu Tierra Community Garden,203-207 South 2nd Street,0.23,DPR,Williamsburg,Active,40.712385,-73.959633,11211.0,523.0,3393848.0,3024070032.0,North Side-South Side,42500145
M339,M,M03,2.0,El Sol Brillante Jr.,537 East 12th Street,0.059000000000000004,DPR,East Village,Active,40.728694,-73.980372,10009.0,34.0,1000000.0,1004060046.0,East Village,42500146
M340,M,M10,9.0,Elizabeth Langley Memorial Garden,121-123 West 137th Street,0.11,DPR,Central Harlem,Active,40.815768,-73.940759,10030.0,228.0,1000000.0,1020060019.0,Central Harlem North-Polo Grounds,42500147
B460,B,B05,42.0,Elton Street Block Association,585 Elton Street,0.09699999999999999,DPR,East New York,Active,40.668638,-73.882081,11208.0,1164.0,3000000.0,3040660002.0,East New York,42500148
,B,B05,37.0,Essex Street Community Fulton Street Garden (Fulton Street Community Garden),3030 Fulton Street,0.07400000000000001,NYRP,East New York,At Essex Street,40.680440999999995,-73.883066,11208.0,1168.0,3000000.0,3039560051.0,East New York,42500149
B461,B,B05,0.0,Euclid 500 Block Association.,532 Euclid Avenue,0.18100000000000002,DPR,East New York,Active,40.673943,-73.871567,11208.0,1196.0,3095412.0,3042490079.0,East New York,42500150
,B,B05,42.0,Euclid Pine Block Association,,0.071,TPL,East New York,Aldride & Bay Vew,,,,,,,,42500151
B532,B,B03,,F.A.R.R. Block Association,808 Herkimer Street,0.027999999999999997,DPR,,Active,40.678383000000004,-73.926777,11233.0,299.0,3000000.0,3017090022.0,Crown Heights North,42500152
B462,B,B05,42.0,Family Community Garden - Brooklyn,793 Cleveland Street,0.275,DPR,East New York,Active,40.665184,-73.881518,11208.0,1120.0,3097072.0,3043130055.0,East New York,42500153
M330,M,M11,8.0,Family Community Garden - Manhattan,156 East 111th Street,0.04,DPR,East Harlem,Active,40.79527,-73.943572,10029.0,172.0,1000000.0,1016380050.0,East Harlem South,42500154
,M,M11,8.0,Family Garden,431 East 114th Street,0.057,NYRP,East Harlem,1st & Pleasant Avenues,40.794189,-73.935108,10029.0,178.0,1000000.0,1017080017.0,East Harlem North,42500155
X337,X,X01,17.0,Family Group Garden,419 East 158th Street,0.10099999999999999,DPR,Melrose,Active,40.822053000000004,-73.913995,10451.0,69.0,2102760.0,2023800127.0,Melrose South-Mott Haven North,42500156
B463,B,B16,41.0,Fantasy Garden,181 Legion Street,0.23,DPR,Brownsville,Active,40.664208,-73.917132,11212.0,894.0,3000000.0,3035530021.0,Brownsville,42500157
X252B,X,X06,0.0,Farm in the Bronx,East 182nd Street,0.188,DPR,,Active,,,,,,,,42500158
B464,B,B16,41.0,Farmers Garden,1897-1905 Bergen Street,0.154,DPR,,Active,40.674381,-73.91832,11233.0,303.0,3000000.0,3014460163.0,Ocean Hill,42500159
M310,M,M03,2.0,Firemens Memorial Garden Inc.,358-364 E 8th Street,0.17,DPR,East Village,Active,40.724470000000004,-73.97791,10009.0,2602.0,1000000.0,1003770011.0,Lower East Side,42500160
B465,B,B03,36.0,First Quincy Street GreenThumb Garden,397-401 Quincy Street,0.13,DPR,,Active,40.687717,-73.944139,11221.0,265.0,3000000.0,3018050076.0,Bedford,42500161
M358,M,M03,,First Street Garden,48 East 1st Street,0.061,DPR,,Active,40.72384,-73.989772,10003.0,3602.0,1000000.0,1004430053.0,East Village,42500162
B466,B,B05,42.0,First Temple of David,494 Bradford Street,0.062,DPR,East New York,Active,40.666585,-73.890635,11207.0,1126.0,,,East New York (Pennsylvania Ave),42500163
M291,M,M01,1.0,FishBridge Pk. (South-Water-Front Neigh. Assoc.),338-340 Pearl Street,0.1,DPR,Downtown Manhattan,Active,40.709257,-74.00198,10038.0,1501.0,1000000.0,1001060022.0,Battery Park City-Lower Manhattan,42500164
,M,M10,9.0,Five Star Block Association,250-252 West 121st Street,0.083,TPL,Harlem,Adam Clayton Powell & Fredrick Douglas Blvds,40.807004,-73.951621,10027.0,220.0,1000000.0,1019260053.0,Central Harlem South,42500165
B467,B,B05,37.0,Floral Vineyard,2379-2385 Pitkin Avenue,0.107,DPR,East New York,Active,40.673578000000006,-73.884567,11207.0,1150.0,3000000.0,3040000031.0,East New York,42500166
X324,X,X07,15.0,Fordham Bedford Lot-Busters,2592-2597 Bainbridge Avenue,0.044000000000000004,DPR/TPL,,Active,40.863711,-73.892599,10458.0,39901.0,,,Bedford Park-Fordham North,42500167
X324,X,X07,15.0,Fordham Bedford Lot-Busters,2592-2597 Bainbridge Avenue,0.044000000000000004,TPL/DPR,,Active,40.863711,-73.892599,10458.0,39901.0,,,Bedford Park-Fordham North,42500168
M317,M,M09,7.0,Frank White Memorial Garden,506-508 West 143rd Street,0.09,DPR,Hamilton Heights,Active,40.824306,-73.94944100000001,10031.0,229.0,1000000.0,1020740045.0,Hamilton Heights,42500169
X318,X,X03,16.0,Franklin Memorial Garden,1060-1062 Cauldwell Avenue,0.12,DPR,Morrisania,Active,40.826309,-73.905603,10456.0,185.0,,,Morrisania-Melrose,42500170
,M,M07,0.0,Frederick Douglass Academy HS,2599 Adam Clayton Powell Jr Boulevard,0.19699999999999998,DOE,,At W. 147th Street,,,,,,,,42500171
,M,M11,9.0,Friendly Garden,95 East 111th Street,0.076,HPD,East Harlem,At Park Avenue,40.796245,-73.94584300000001,10029.0,17402.0,1000000.0,1016170035.0,East Harlem South,42500172
,M,M09,7.0,Friendship Garden (Lucille McClarey Garden),499 West 150th Street,0.038,NYRP,Hamilton Heights,,40.828638,-73.945842,10031.0,237.0,1000000.0,1020820127.0,Hamilton Heights,42500173
M377,M,M10,,Garden,Fredrick Douglas Blvd. and W. 152ns St,0.046,DPR,,,,,,,,,,42500174
B420,B,B03,41.0,Garden Beautiful,Corner of Broadway & Putnam Ave.,0.19399999999999998,DPR,Bed-Stuy,Active,,,,,,,,42500175
,B,B03,41.0,Garden of Angels,978 Greene Avenue,0.057,TPL,Bed-Stuy,Patchen Avenue & Malcolm X Blvd.,40.690965999999996,-73.928771,11221.0,387.0,3000000.0,3016220032.0,Stuyvesant Heights,42500176
X297,X,X04,14.0,Garden of Eden - Bronx,1686 Weeks Avenue,0.21,DPR,,Active,40.844045,-73.907616,10457.0,22902.0,2007362.0,2027920030.0,Mount Hope,42500177
X293,X,X06,15.0,Garden of Happiness,2156-2160 Prospect Avenue,0.33,DPR,Crotona,Active,40.848425,-73.885543,10457.0,371.0,2118275.0,2031100048.0,East Tremont,42500178
,B,B03,36.0,Garden of Hope,392 Hancock Street,0.046,NYRP,,Throop & Marcus Garvey Blvd,40.683685,-73.93996700000001,11216.0,275.0,3414301.0,3018410014.0,Stuyvesant Heights,42500179
X298,X,X04,14.0,Garden of Life,1685 Weeks Avenue,0.18,DPR,,Active,40.844009,-73.907641,10457.0,22902.0,2109796.0,2027930028.0,Mount Hope,42500180
M341,M,M10,9.0,Garden of Love,302 West 116th Street,0.087,DPR,Upper West Side,Active,40.804522,-73.955636,10026.0,20102.0,1000000.0,1018480055.0,Central Harlem South,42500181
B399,B,B06,38.0,Garden of Union (Annie's Garden),"634-36, 640 Union Street",0.203,DPR,Park Slope,Active,,,,,,,,42500182
,X,X06,15.0,Garden Of Youth,E 182nd Street,,PRI,Crotona,At Prospect Avenue,,,,,,,,42500183
M071A,M,M09,,Garden People,West 91st and Riverside Drive,,DPR,,Active,,,,,,,,42500184
M329,M,M03,2.0,Generation X Cultural Garden,270-272 East 4th Street,0.11,DPR,East Village,Active,40.722906,-73.981662,10009.0,2601.0,1000000.0,1003860021.0,Lower East Side,42500185
,B,B05,42.0,Genesis Homes Garden,298-304 Snediker Avenue,0.054000000000000006,DPR,East New York,,40.667834,-73.900611,11207.0,1134.0,,,East New York (Pennsylvania Ave),42500186
Q488,Q,Q12,28.0,George Eagle Carr Community Garden,148th Street,0.121,DPR,Jamaica,Active,,,,,,,,42500187
Q489,Q,Q12,27.0,George Washington Carver Botanical Garden,109-13 156th Street,0.057,DPR,,Active,40.692461,-73.794877,11433.0,260.0,,,South Jamaica,42500188
,M,M12,10.0,George Washington High School,549 Audubon Avenue,,DOE,Washington Heights,W. 190th St & Ft. George-Amstersam Avenue,40.855954,-73.927051,10040.0,277.0,1076751.0,1021600018.0,Washington Heights North,42500189
,Q,Q13,0.0,P.S. 251Q,144-51 144th Road,0.138,DOE,Springfield Gardens,Arthur Street,,,,,,,,42500190
,B,B02,0.0,George Westinghouse HS - Marvin's Garden,"105 Johnson Street (Tech), Brooklyn, NY 11201",,DOE,Downtown Brooklyn,Jay & Johnson Street,40.694926,-73.98601500000001,11201.0,13.0,3348041.0,3001310001.0,DUMBO-Vinegar Hill-Downtown Brooklyn-Boerum Hill,42500191
B415,B,B05,42.0,Georgia Avenue Community Garden,328 New Lots Avenue,0.036000000000000004,DPR,East New York,Active,40.661178,-73.89455799999999,11207.0,1128.0,3000000.0,3042970001.0,East New York (Pennsylvania Ave),42500192
B436,B,B16,42.0,Gethsemane Garden,144 Newport Street,0.046,DPR,Brownsville,Active,40.659215,-73.909847,11212.0,916.0,3082592.0,3036130028.0,Brownsville,42500193
B468,B,B05,37.0,Glenmore Hendrix Block Assoc.,555 Glenmore Avenue,0.032,DPR,East New York,Active,40.674105,-73.88988,11207.0,1152.0,3000000.0,3039780035.0,East New York,42500194
,X,X09,,Glover Street Community Garden,"1642 Glover Street, Bronx NY 10462",,NYRP,,Intersection of Castle Hill & Glover Street,,,,,,,,42500195
B469,B,B05,42.0,Good Shepherd's Community Group,555-557 Shepherd Avenue,0.114,DPR,East New York,Active,40.670738,-73.879951,11208.0,1164.0,3089843.0,3040530010.0,East New York,42500196
B428,B,B04,,Goodwin Gardens,46 - 62 Goodwin St.,0.348,DPR,,,,,,,,,,42500197
B470,B,B04,37.0,Granite Street Block Association,28-32 Granite Street,0.172,DPR,Bushwick,Active,40.682511,-73.907811,11207.0,405.0,3000000.0,3034610018.0,Bushwick South,42500198
,X,X04,16.0,Grant Avenue Garden,1062 Grant Avenue,0.057999999999999996,TPL,,E. 165th & E. 166th Streets,40.830303,-73.916893,10456.0,18101.0,2000000.0,2024480011.0,East Concourse-Concourse Village,42500199
B058A,B,B01,33.0,Green Dome,229 North 12th Street,,DPR,Greenpoint,Active,40.719516,-73.952969,11211.0,515.0,,,North Side-South Side,42500200
B471,B,B05,37.0,Green Gems,947-953 Glenmore Avenue,0.494,DPR,East New York,Active,40.676272,-73.875077,11208.0,1196.0,3000000.0,3041910047.0,East New York,42500201
,B,B06,38.0,Green Space @ President Street,222 5th Avenue,0.045,TPL,Park Slope,At President Street,40.676008,-73.980745,11215.0,133.0,3000000.0,3009550049.0,Park Slope-Gowanus,42500202
B472,B,B03,36.0,Greene Avenue United Neighbors Association,490 Greene Avenue,0.046,DPR,,Active,40.688328999999996,-73.951722,11216.0,243.0,3000000.0,3017970057.0,Bedford,42500203
Q045A,Q,Q02,26.0,"LIC Comm. Gardens, Inc.",S/S 49th Avenue./W/O Vernon Boulevard.,0.172,DPR,Long Island City,Active,,,,,,,,42500204
,B,B02,35.0,Greene Garden,2 South Portland Avenue,0.084,TPL,,At DeKalb Avenue,40.689322,-73.975044,11217.0,33.0,3000000.0,3020990043.0,Fort Greene,42500205
B484,B,B05,37.0,Gregory's Garden (P.S. 158 Memorial Garden),"444,448 Warwick Avenue",0.057,DPR,East New York,Active,,,,,,,,42500206
,B,B03,,Halsey Ralph and Howard Garden,774 Halsey St.,,HPD,,,40.684917999999996,-73.922702,11233.0,377.0,3039988.0,3014930001.0,Stuyvesant Heights,42500207
B473,B,B03,36.0,Hancock T & T Block Association,322-324 Hancock Street,0.081,DPR,,Active,40.683344,-73.942924,11216.0,267.0,3000000.0,3018400016.0,Bedford,42500208
B527,B,B05,,Hands & Heart (New Lots Urban Farm),New Lots Avenue,,DPR,East New York,Active,,,,,,,,42500209
X118A,X,X09,18.0,Harding Park Beautification Project,155 Harding Park,1.16,DPR,,Active,40.807736,-73.857874,10473.0,2.0,,,Soundview-Castle Hill-Clason Point-Harding Park,42500210
M363,M,M11,9.0,Harlem Rose Garden,4-8 E 129th Street,0.136,DPR,,Active,40.808821,-73.9401,10035.0,206.0,1000000.0,1017530168.0,Central Harlem North-Polo Grounds,42500211
M297,M,M10,9.0,Harlem Success Garden - P.S. 175/I.S. 275,116 - 122 West 134th Street,0.25,DPR,Harlem,Active,40.813777,-73.942176,10030.0,226.0,1000000.0,1019180046.0,Central Harlem North-Polo Grounds,42500212
,M,M10,21.0,Harlem Village Green,52 W 129th Street,0.046,PRI,Harlem,,40.809753,-73.94230999999999,10027.0,208.0,1000000.0,1017260064.0,Central Harlem North-Polo Grounds,42500213
,B,B03,36.0,Hart Street Community Garden,169-171 Hart Street,0.092,TPL,Bed-Stuy,Tompkins & Throop,40.693661999999996,-73.94457,11206.0,261.0,3000000.0,3017680066.0,Bedford,42500214
B474,B,B03,36.0,Hart to Hart,104-108 Hart Street,0.332,DPR,Bed-Stuy,Active,40.693312,-73.947474,11206.0,261.0,3000000.0,3017710020.0,Bedford,42500215
B400,B,B03,36.0,Hattie Carthan Community Garden,654 Lafayette Avenue/363-365 Clifton Place,0.11699999999999999,DPR,Bed-Stuy,Active,,,,,,,,42500216
,B,B01,34.0,Heckscher Foundation For Children's Garden,134-136 Scholes Street,0.057,NYRP,Williamsburg,,40.708692,-73.944327,11206.0,505.0,3000000.0,3030430013.0,East Williamsburg,42500217
,B,B05,42.0,Hendrix Street Community Garden (Block Association of Hendrix Street),532 Hendrix Street,0.023,NYRP,East New York,Blake & Dumont Avenues,40.668485,-73.88831400000001,11207.0,1160.0,3090008.0,3040580121.0,East New York,42500218
,M,M11,8.0,Herb Garden (111th St. Betterment Association),176 E 111th Street,0.08,NYRP,East Harlem,3rd & Lexington Avenues,40.795069,-73.943106,10029.0,172.0,1000000.0,1016380142.0,East Harlem South,42500219
B475,B,B05,37.0,Herbal Garden of East New York,582 - 590 Glenmore Avenue,0.23,DPR,East New York,Active,40.674263,-73.888701,11207.0,1150.0,3000000.0,3039960011.0,East New York,42500220
,M,M04,0.0,High School For Environmental Studies,444 W 56th Street NY NY 10019,,DOE,Midtown,9th & 10th Avenues,40.767790999999995,-73.987531,10019.0,139.0,1026841.0,1010650001.0,Clinton,42500221
B047A,B,B05,37.0,Highland Park Children's Garden,Jamaica Avenue,0.41,DPR,Highland Park,Active,,,,,,,,42500222
,B,B02,35.0,Hollenback Community Garden,460 Washington Avenue,0.158,TPL,Clinton Hill,Gates & Greene Avenue,40.685321,-73.965249,11238.0,199.0,3000000.0,3019620069.0,Clinton Hill,42500223
,M,M11,8.0,Home Depot Community Garden  (St. Mark's Monastery 1),415-421 East 117th Street,0.163,NYRP,East Harlem,1st Avenue & E 117th St,40.79645,-73.934347,10035.0,178.0,1000000.0,1017110008.0,East Harlem North,42500224
M371,M,M03,1.0,Hope Garden,193 East 2nd Street,0.046,DPR,East Village,Active,40.722289,-73.984094,10009.0,3002.0,1000000.0,1003970028.0,East Village,42500225
,M,M09,7.0,Hope Steven Garden,1656 Amsterdam Avenue,0.062,TPL,Hamilton Heights,142nd St & Hamilton Pl & Amsterdam Avenue,40.823414,-73.94895,10031.0,229.0,1000000.0,1020740029.0,Hamilton Heights,42500226
X346,X,X06,15.0,Hornaday Community Garden (Volky Flower Garden),851 Hornaday Avenue,0.115,DPR,,Active,,,,,,,,42500227
B528,B,B16,41.0,Howard Garden,750 Howard Avenue,0.21899999999999997,DPR,Brownsville,Active,40.663636,-73.91895699999999,11212.0,892.0,3000000.0,3035500043.0,Brownsville,42500228
B413,B,B16,37.0,Hull Street Community Garden Inc.,196 Hull Street,0.32,DPR,Ocean Hill / Brownsville,Active,40.679912,-73.907566,11233.0,369.0,,,Ocean Hill,42500229
,B,B16,41.0,Hull Street Playground,145 Hull Street,0.057,NYRP,Bed-Stuy,Hopkinson & Rockaway Avenues,40.679465,-73.911615,11233.0,371.0,3000000.0,3015330049.0,Ocean Hill,42500230
M344,M,M11,8.0,Humacao Community Garden,335 E 108th Street,0.11,DPR,East Harlem,Active,40.791109000000006,-73.939592,10029.0,170.0,1089058.0,1016800021.0,East Harlem South,42500231
B408,B,B06,39.0,Human Compass Community  Garden Inc.,207-209 Columbia Street,0.073,DPR,Red Hook,Active,40.684958,-74.002726,11231.0,51.0,3000000.0,3003360010.0,Carroll Gardens-Columbia Street-Red Hook,42500232
,M,M12,10.0,I.S. 143 - Penny Harvest Garden,511 & 516 West 182nd Street,0.08,DOE,Washington Heights,Amsterdam Avenue & Audubon Avenue (Fort George),,,,,,,,42500233
,X,X06,15.0,I.S. 193X,1919 Prospect Avenue,0.677,DOE,,,40.843546,-73.88975500000001,10457.0,36901.0,2094582.0,2029510032.0,East Tremont,42500234
,M,M12,7.0,I.S. 218 - Swindler Cove Garden,Harlem River Drive/Dyckman Street,,DOE,Washington Heights,,,,,,1000000.0,1022552000.0,,42500235
,B,B11,0.0,I.S. 227 - Shallow's School Yard Santuaries,6500 16th Avenue & 65th Street,,DOE,,Same,,,,,,,,42500236
,B,B05,42.0,I.S. 311 - The Essence School,"800 Van Siclen Avenue, Brooklyn, NY 11207",,DOE,,Linden Blvd.,40.660109999999996,-73.885387,11207.0,1104.0,3097675.0,3043490050.0,East New York,42500237
,B,B12,39.0,I.S. 62 - The Greening of Ditmas,700 Cortelyou Road,,DOE,Kensington,East 7th & Ditmas,40.638686,-73.971651,11218.0,490.0,3126842.0,3053910001.0,Kensington-Ocean Parkway,42500238
,B,B01,33.0,I.S. 71,215 Heyward Street,,TPL/DOE,Williamsburg,Marcy Avenue & Harrision Street,40.703624,-73.95314599999999,11206.0,529.0,3061064.0,3022270001.0,Williamsburg,42500239
,M,M12,0.0,I.S. 90 Miracle Sisters Garden,"21 Jumel Place, NY NY 10032",,DOE,Washington Heights,Edgecome Avenue - 167th/169th St,40.839304999999996,-73.936159,10032.0,249.0,1076741.0,1021120058.0,Washington Heights South,42500240
,B,B11,44.0,I.S. 96,99 Avenue P,,DOE,,,40.60754,-73.984661,11204.0,430.0,3174076.0,3065950033.0,Bensonhurst East,42500241
,B,B08,41.0,Imani II Garden (Schenectady Avenue Community Garden),87-91 Schenectady Avenue,0.092,HPD,Crown Heights,,40.676312,-73.93318199999999,11213.0,309.0,3000000.0,3013420005.0,Crown Heights North,42500242
X314,X,X01,17.0,Isla Verde Garden,625 Wales Avenue,0.16,DPR,,Active,40.814909,-73.906522,10455.0,73.0,2127170.0,2026430050.0,Melrose South-Mott Haven North,42500243
,X,X03,16.0,J.H.S. 120,890 Cauldwell Avenue,,DOE,,,40.822474,-73.90719399999999,10456.0,185.0,2004496.0,2026310048.0,Morrisania-Melrose,42500244
,B,B02,35.0,J.H.S. 265,101 Park Avenue,2.7119999999999997,DOE,,N. Portland/Flushing,40.696324,-73.97578,11205.0,211.0,3057942.0,3020280001.0,Fort Greene,42500245
M364,M,M11,8.0,Jackie Robinson Community Garden,103 East 122nd Street,0.057999999999999996,DPR/HPD,,Active,40.803013,-73.940152,10035.0,196.0,1000000.0,1017710005.0,East Harlem North,42500246
X319,X,X03,16.0,Jackson Forest/Morrisania Concerned Citizens,722 & 736 Home Street,0.18,DPR,Morrisania,Active,,,,,,,,42500247
,X,X03,16.0,Jacqueline Denise Davis Garden,1022-1024 Boston Road (north of E 165th Street),0.223,TPL,,165th Street & Cauldwell Avenue,40.825996999999994,-73.906723,10456.0,185.0,2000000.0,2026220037.0,Morrisania-Melrose,42500248
,X,X03,0.0,Jane Adams Vocational H.S. - 4 Seasons Garden,900 Tinton Avenue,,DOE,,163rd & E. 161st Street,40.821675,-73.90354599999999,10456.0,133.0,2004807.0,2026680001.0,Morrisania-Melrose,42500249
,B,B03,36.0,Jane Bailey Memorial Garden,327-329 Greene Avenue,0.094,NYRP,,Franklin & Classon,40.687596,-73.958223,11238.0,233.0,3000000.0,3019530057.0,Bedford,42500250
X320,X,X03,15.0,Jardin de la Familia,1507 Washington Avenue,0.32,DPR,,Active,40.837907,-73.903201,10457.0,169.0,2000000.0,2029030037.0,Claremont-Bathgate,42500251
,X,X03,17.0,Jardin la Roca/Rock Garden,160 Elton Avenue,,DPR,Melrose,East 159 & East 160th,,,,,,,,42500252
B477,B,B05,24.0,Jerome Gardens,447 Jerome Street,0.036000000000000004,DPR,,Active,40.670460999999996,-73.886004,11207.0,1162.0,3089738.0,3040460120.0,East New York,42500253
B478,B,B05,37.0,Jerry and the Senior Gents of E.N.Y.,349 Schenck Avenue,0.057,DPR,East New York,Active,40.672292,-73.888329,11207.0,1150.0,3000000.0,3040120004.0,East New York,42500254
B511,B,B16,1.0,Jes Good Rewards Children's Garden,155 Amboy Street,0.213,DPR,Brownsville,Active,40.667016,-73.91396,11212.0,902.0,3406857.0,3035180001.0,Brownsville,42500255
,X,X08,10.0,JFK High School - Enchanted Garden,JFK High School 99 Terrace View Avenue,,DOE,Marble Hill,Tibbet Avenue/ 230th Street,,,,,,,,42500256
,X,X12,15.0,Jim Mackey Eastchester Road Community Garden,E/S Eastchester Road & N/O E 222nd Street,0.046,NYRP,,,,,,,,,,42500257
R146,R,R01,49.0,Joe Holzka Community Garden,1161 Castleton Avenue,0.429,DPR,,Active,40.634234,-74.12114,10310.0,13302.0,5112951.0,5001970135.0,West New Brighton-New Brighton-St. George,42500258
,Q,Q08,0.0,John Bowne High School,"63-25 Main Street  Flushing, NY 11367",2.296,DOE,,Reeves Avenue & Gravett Rd,40.738139000000004,-73.82494399999999,11367.0,809.0,4439900.0,4065070001.0,Kew Gardens Hills,42500259
,B,B06,38.0,John Jay High School,"237 7th Avenue.  Brooklyn, NY 11215",0.6890000000000001,DOE,Park Slope,corner of 7th & 5th Street,40.669629,-73.979287,11215.0,155.0,3025510.0,3010820001.0,Park Slope-Gowanus,42500260
,B,B03,34.0,John the Baptist Community Center Inc.,10 Stuyvesant Avenue,0.076,TPL,,,40.696355,-73.93473,11221.0,287.0,3000000.0,3015860041.0,Stuyvesant Heights,42500261
B509,B,B05,37.0,Jordan Magic Garden - DPR,Belmont Ave & Van Siclen Ave,0.115,DPR,East New York,Active,,,,,,,,42500262
,X,X03,0.0,Jose Gonzalez House Community Garden,1175 Hoe Avenue,,PRI,,Home & E.167th Street,40.827899,-73.890901,10459.0,125.0,2117582.0,2027450030.0,Morrisania-Melrose,42500263
M351,M,M10,9.0,Joseph Daniel Wilson Memorial Gardens,219 W. 122nd Street,0.06,DPR,,Active,40.807407,-73.950588,10027.0,222.0,1000000.0,1019280023.0,Central Harlem South,42500264
M345,M,M03,2.0,Kenkeleba House Garden,212 E. 3rd Street,0.31,DPR,East Village,Active,40.722502,-73.982582,10009.0,2202.0,1000000.0,1003850011.0,Lower East Side,42500265
B398,B,B03,36.0,Kosciusko St. Comm. Pk./Learning Center,385-389 Kosciusko Street,0.185,DPR,Bed-Stuy,Active,40.692034,-73.93916999999999,11221.0,281.0,3000000.0,3016010063.0,Stuyvesant Heights,42500266
X266A,X,X06,15.0,Krystal Community Garden,2085-2093 Vyse Avenue.,0.614,DPR,,Active,40.843482,-73.88086,10460.0,363.0,2118291.0,2031270070.0,East Tremont,42500267
,M,M11,8.0,La Casita,223 E. 119th Street,0.057,NYRP,East Harlem,2nd & 3rd Avenue,40.799606,-73.937894,10035.0,194.0,1000000.0,1017840011.0,East Harlem North,42500268
M383,M,M11,8.0,La Cuevita Community Garden,71 East 115th Street,0.057,DPR,East Harlem,Active,40.798797,-73.944151,10029.0,184.0,1000000.0,1016210030.0,East Harlem North,42500269
X145,X,X01,,La Finca Del Sur/ South Bronx Farmers,138th & Grand Concourse,0.255,DPR/MTA/DOT,,Active,,,,,,,,42500270
,B,B04,34.0,La Finea,1036 Flushing Avenue,,TPL,,Knickerbocker Avenue  & Vandervoort Pl.,40.704359000000004,-73.929634,11237.0,427.0,3251846.0,3031550020.0,Bushwick North,42500271
X327,X,X04,16.0,La Isla,96-98 W. 163rd Street,0.11,DPR,Highbridge,Active,40.832115,-73.929249,10452.0,189.0,2000000.0,2025110065.0,Highbridge,42500272
M373,M,M07,8.0,La Perla Garden,76 W. 105th Street,0.036000000000000004,DPR,Upper West Side,Active,40.798286,-73.96271899999999,10025.0,189.0,1000000.0,1018400061.0,Upper West Side,42500273
M325,M,M03,2.0,La Plaza Cultural-Armando Perez,632-650 E. 9th Street,0.64,DPR,East Village,Active,40.725815000000004,-73.979248,10009.0,2602.0,1000000.0,1003910023.0,Lower East Side,42500274
,M,M02,2.0,LaGuardia Corner Community Garden,511 LaGuardia Place,0.08,DOT,Greenwich Village,Bleecker & Houston Streets.,40.727809,-73.99915899999999,10012.0,5501.0,1008242.0,1005240009.0,West Village,42500275
X328,X,X04,16.0,Las Casitas Community Garden,1126 - 1140 Woodycrest Avenue,0.19,DPR,Highbridge,Active,40.835464,-73.925809,10452.0,199.0,2091252.0,2025090036.0,Highbridge,42500276
X337,X,X01,17.0,Latinos Unidos,427 East 157th Street,0.11599999999999999,DPR,,Active,40.821362,-73.91415400000001,10451.0,69.0,2000000.0,2023790030.0,Melrose South-Mott Haven North,42500277
,X,X05,0.0,Learning Tree,1885 University Avenue (behind Calvary Methodist Church),,PRI,,W. Burnside & W. Tremont,40.852536,-73.913333,10453.0,24501.0,2009056.0,2028790035.0,University Heights-Morris Heights,42500278
B479,B,B03,19.0,Lefferts Place Block Association,162 Lefferts Place,0.068,DPR,,Active,40.6806,-73.957474,11238.0,227.0,3000000.0,3020200019.0,Clinton Hill,42500279
M346,M,M11,8.0,"Life Spire (CRMD, Inc.)",2015 Lexington Avenue,0.02,DPR,Harlem,Active,40.802809,-73.938552,10035.0,196.0,1000000.0,1017710121.0,East Harlem North,42500280
B480,B,B09,40.0,Lincoln Road Garden,316 Lincoln Road,0.065,DPR,,Active,40.661467,-73.952239,11225.0,800.0,,,Prospect Lefferts Gardens-Wingate,42500281
,B,B06,33.0,Lincoln-Berkeley Comm. Garden,20 Lincoln Place,0.064,TPL,Park Slope,between 5th & 6th Street,40.677378000000004,-73.97884499999999,11217.0,131.0,3000000.0,3009500016.0,Park Slope-Gowanus,42500282
,Q,Q12,27.0,Linden Boulevard Community Garden,178th Street & Linden Boulevard,0.013000000000000001,NYRP,,At traingle 115th Avenue,,,,,,,,42500283
,B,B04,34.0,Linden-Bushwick Garden,113 Linden Street,0.244,PRI,Bushwick,Broadway & Bushwick Avenues,40.693162,-73.91964899999999,11221.0,417.0,3076110.0,3033230060.0,Bushwick South,42500284
,M,M11,9.0,Little Blue House,1675 Madison Avenue,0.024,HPD,East Harlem,111 Street,40.796976,-73.947034,10029.0,17402.0,1000000.0,1016170122.0,East Harlem South,42500285
M326,M,M03,1.0,Liz Christy Garden,110 E Houston Street,1.09,DPR,Lower East Side,Active,40.723832,-73.991576,10002.0,3602.0,1000000.0,1004560001.0,East Village,42500286
,Q,Q01,0.0,Long Island City Roots Community Garden,47th Avenue.,,MTA,,29th & 30th Streets,,,,,,,,42500287
M357,M,M03,,Los Amigos,221 East 3rd Street,0.061,DPR,Lower East Side,Active,40.722453,-73.982423,10009.0,2601.0,1088347.0,1003860060.0,Lower East Side,42500288
,M,M11,8.0,Los Amigos Garden,326 Pleasant Avenue,0.045,NYRP,East Harlem,,40.796043,-73.932422,10035.0,178.0,1076407.0,1017160050.0,East Harlem North,42500289
M361,M,M03,2.0,Lower East Side Ecology Center,213 E. 7th Street,0.15,DPR,East Village,Active,40.724508,-73.979851,10009.0,2602.0,1000000.0,1003900046.0,Lower East Side,42500290
,M,M03,1.0,Lower East Side People Care,25 Rutgers Street,0.046,TPL,Lower East Side,Henry & Madison,40.712962,-73.990026,10002.0,6.0,1000000.0,1002710063.0,Lower East Side,42500291
,M,M03,0.0,M.S. 131,"100 Hester Street  NY, NY 10002",0.018000000000000002,DOE,Lower East Side,Forsyth & Eldridge,40.716553000000005,-73.993092,10002.0,16.0,1082489.0,1003010003.0,Chinatown,42500292
,X,X11,13.0,M.S. 144,2545 Gunther Avenue,0.45899999999999996,DOE,,,40.863735,-73.83606999999999,10469.0,310.0,2053518.0,2044930001.0,Allerton-Pelham Gardens,42500293
,Q,Q09,0.0,M.S. 210 - YMCA Beacon Center Garden,"93-11 101st Street, Ozone Park, NY 11416",,DOE,Ozone Park,93rd & 94th streets,,,,,,,,42500294
,B,B08,35.0,M.S. 340,227 Sterling Place,,DOE,Prospect Heights,Corner Vanderbuilt & Flatbush Avenue,40.676094,-73.97038,11238.0,163.0,3029060.0,3011640057.0,Prospect Heights,42500295
,B,B09,41.0,M.S. 391 Mahalia Jackson,790 East New York Avenue,,DOE,,,40.662447,-73.936382,11203.0,876.0,3107129.0,3048060001.0,Prospect Lefferts Gardens-Wingate,42500296
,M,,0.0,M.S. 54 - Booker T Washington Garden,103 West 108th Street,,DOE,East Harlem,Columbus & Amsterdam Avenue,40.80069,-73.962238,10025.0,193.0,1056004.0,1018630026.0,Morningside Heights,42500297
,B,B09,40.0,M.S. 61 -  Atwell,400 Empire Boulevard.,,DOE,,,40.664007,-73.94922,11225.0,329.0,3337872.0,3013160015.0,Prospect Lefferts Gardens-Wingate,42500298
B499,B,B03,41.0,Madison Community GreenThumb Garden,894 Madison Street,0.057,DPR,,Active,40.687995,-73.92200600000001,11221.0,375.0,3000000.0,3014830027.0,Stuyvesant Heights,42500299
B481,B,B04,37.0,Madison Square Garden,1262-1264 Madison Street,0.165,DPR,,Active,40.694952,-73.913174,11221.0,435.0,3000000.0,3033700025.0,Bushwick North,42500300
,B,B04,34.0,Madison Street Association,974 Madison Street,0.040999999999999995,NYRP,,,40.688959000000004,-73.919063,11221.0,397.0,3000000.0,3033660023.0,Bushwick South,42500301
B482,B,B03,36.0,Madison Street Block Association,88-90 Madison Street,0.039,DPR,,Active,40.684145,-73.955485,11216.0,229.0,3000000.0,3019900014.0,Clinton Hill,42500302
,M,M09,7.0,Maggies Garden,564 West 149th Street,0.075,NYRP,Washington Heights,Amsterdam & Broadway,40.828472,-73.947418,10031.0,233.0,1000000.0,1020800058.0,Hamilton Heights,42500303
M327,M,M11,8.0,Maggies Garden (formerly Ebenezer Wesleyan Methodist Church Garden),1574 Lexington Avenue,0.057,DPR,East Harlem,Active,40.788624,-73.948933,10029.0,166.0,1000000.0,1016280015.0,East Harlem South,42500304
,M,M11,8.0,Magic Garden,1665-71 Park Avenue,0.207,HPD,East Harlem,117-118th Street,40.800245000000004,-73.942524,10035.0,182.0,1000000.0,1016450003.0,East Harlem North,42500305
,Q,Q03,21.0,Malcom X Day Care Center,111-26 Northern Boulevard.,0.046,TPL,,111th ST & 112th ST,40.757942,-73.858287,11368.0,381.0,4000000.0,4017260014.0,North Corona,42500306
,B,B08,36.0,MaMa Dee's Garden,1397 Bedford Avenue,0.07200000000000001,TPL,Crown Heights,,40.675251,-73.953404,11216.0,221.0,3000000.0,3012250010.0,Crown Heights North,42500307
B483,B,B05,37.0,Manleys Place,2539 Pitkin Avenue,0.28,DPR,East New York,Active,40.674461,-73.878498,11208.0,1192.0,3000000.0,3040070040.0,East New York,42500308
,X,X09,17.0,Manor Avenue Seniors Garden,1025 Manor Avenue,0.057,TPL,,Bruckner Blvd & Watson,40.824911,-73.87545899999999,10472.0,5001.0,2023551.0,2037160057.0,Soundview-Bruckner,42500309
B510,B,B16,41.0,Marcus Garvey Tenants Association,Strauss Street/N/O Pitkin Avenue,0.23,DPR,Brownsville,Active,,,,,,,,42500310
M297A,M,M10,9.0,Margrichantie Memorial Garden,155-159 W. 133rd Street,0.171,DPR,,Active,40.813563,-73.943564,10030.0,226.0,1000000.0,1019180011.0,Central Harlem North-Polo Grounds,42500311
,X,X10,0.0,Maritime Academy @ P.S. 10,"2770 Lafayette Avenue, Bronx, NY 10465",,DOE,Schuylerville,Brinsmade Avenue & Cross Bronx Expressway,,,,,2080231.0,2055470001.0,,42500312
,Q,Q03,21.0,McIntosh Neighborhood Assoc.,S/E/C 100th Street & McIntosh Street,0.127,TPL,,27th Avenue & 25th Avenue,,,,,,,,42500313
Q493,Q,Q12,28.0,McKinleys Childrens Garden,108-56 Union Hall Street,0.091,DPR,Jamaica,Active,40.695304,-73.791536,11433.0,254.0,4000000.0,4101490070.0,South Jamaica,42500314
,B,B16,16.0,McLeods Community Garden (formerly Powell Street Block Association - Liberty Ave),130 Liberty Avenue,0.257,NYRP,,Sackman & Powell Streets.,40.673066999999996,-73.905437,11212.0,908.0,3326764.0,3036940016.0,Brownsville,42500315
,X,X01,17.0,Members Group (Dalia Group Garden),724 Courtlandt Avenue,0.057,NYRP,Melrose,E 156th & E 157th,40.820733000000004,-73.917663,10451.0,69.0,2001728.0,2024020004.0,Melrose South-Mott Haven North,42500316
,Q,Q12,27.0,"Merrick-Marsden Neighbors Association., Inc.",11818-11820 Merrick Boulevard.,0.046,TPL,,119th Avenue,,,,,,,,42500317
M105A,M,M02,3.0,Mfinda Kalunga Garden,Rivington Street Crossover (in Sarah Roosevelt Park),,DPR,East Village,Active,,,,,,,,42500318
,X,X02,18.0,Mildred T. Rhodebeck Garden (Garden of Eden),927 Faile Street,0.193,NYRP,,N/W corner of Bruckner Boulevard & Faile Street,40.821521999999995,-73.88929300000001,10459.0,119.0,2125430.0,2027460053.0,Hunts Point,42500319
X329,X,X06,15.0,Miracle Garden - Bronx,Marmion Avenue,0.11,DPR,,Active,,,,,,,,42500320
M314,M,M03,1.0,Miracle Garden - Manhattan,194-196 East 3rd Street,0.12,DPR,East Village,Active,40.722916999999995,-73.983563,10009.0,3002.0,1000000.0,1003980027.0,East Village,42500321
,M,M09,7.0,Mo Pals,545 West 147th Street,0.039,TPL,Hamilton Heights,Amsterdam & Broadway,40.827075,-73.947928,10031.0,233.0,1000000.0,1020790011.0,Hamilton Heights,42500322
M347,M,M07,8.0,Mobilization For Change Community Garden,955 Columbus Avenue,0.043,DPR,Upper West Side,Active,40.799757,-73.962476,10025.0,193.0,1000000.0,1018420061.0,Morningside Heights,42500323
X342,X,X03,,Model T,1312 Bristow Street.,0.272,DPR,,Active,40.831037,-73.89474799999999,10459.0,153.0,2126571.0,2029650199.0,Crotona Park East,42500324
M348,M,M12,7.0,Morris Jumel Community Garden,455-457 W 162nd Street,0.1,DPR,Washington Heights,Active,40.835442,-73.93903900000001,10032.0,24301.0,1000000.0,1021100057.0,Washington Heights South,42500325
X275,X,X04,14.0,Mosaic Center (Success Garden),1315-31 Odgen Avenue,0.27,DPR,,Active,,,,,,,,42500326
,B,B03,0.0,Mt. Lebanon Baptist Church,354 Stuyvesant Avenue.,,PRI,Bed-Stuy,McDonough (corner) & Macon,40.682590999999995,-73.931996,11233.0,297.0,3046835.0,3016700049.0,Crown Heights North,42500327
B514,B,B05,42.0,Nehemiah Ten GreenThumb Block Association,565 Barbey Street,0.275,DPR,East New York,Active,40.668571,-73.886439,11207.0,1162.0,3000000.0,3040610018.0,East New York,42500328
,X,X01,17.0,Neighborhood Advisory Committee,360-362 E. 151st Street,0.135,TPL,Melrose,Courtlandt & Melrose Avenues,40.817871000000004,-73.918523,10455.0,65.0,2000000.0,2023970013.0,Melrose South-Mott Haven North,42500329
,M,M09,7.0,Senior Citizens Sculpture Garden Park,West 153rd Street,0.406,DEP,Hamilton Heights,Street Nicholas & Amsterdam Avenues,,,,,,,,42500330
,B,B08,36.0,Neighborhood Community Garden,1123 Saint Marks Avenue,0.073,DPR,,Schenectady & Utica Avenues,40.674258,-73.932456,11213.0,309.0,3000000.0,3013540080.0,Crown Heights North,42500331
M338,M,M11,8.0,Neighbors of Vega Baja,E. 109th Street,0.07200000000000001,DPR,East Harlem,Active,,,,,,,,42500332
M349,M,M10,9.0,New 123rd Street Block Association,"112,114 & 116 W. 123rd Street",0.14,DPR,Harlem,Active,,,,,,,,42500333
B518,B,B03,41.0,New Age Pride (Victory Garden's Group),953 Gates Avenue,0.057,DPR,Bed-Stuy,Active,40.688836,-73.92789,11221.0,387.0,3000000.0,3016320046.0,Stuyvesant Heights,42500334
,B,B03,36.0,New Harvest (Vrn/Mrcy/Tmpks B.A.),"125,123,121 Vernon Avenue",0.138,HPD,Bed-Stuy,,,,,,,,,42500335
X241,X,X02,18.0,New Hoe Avenue Garden,958 New Hoe Avenue,0.23,DPR,,Active,,,,,,,,42500336
B449,B,B05,42.0,New Vision Garden,590-594 Schenck Avenue.,0.321,DPR,East New York,Active,40.666227,-73.886797,11207.0,1124.0,3414689.0,3040750140.0,East New York,42500337
B513,B,B16,42.0,Newport Gardens,823 Rockaway Avenue,0.138,DPR,Brownsville,Active,40.659785,-73.908199,11212.0,916.0,3000000.0,3036030007.0,Brownsville,42500338
,B,B01,0.0,Nicks Garden,Lorimer and Bayard Streets,,DPR,,,,,,,,,,42500339
X273,X,X03,15.0,North LUBAs Community Rock Garden,1665 Longfellow Avenue,,DPR,,Active,40.834816,-73.885082,10460.0,161.0,2010886.0,2030020047.0,Crotona Park East,42500340
,B,B01,33.0,Northside Community Garden,599 Driggs Avenue,0.034,TPL,Williamsburg,c/o Driggs & N. 5th Street,40.716007,-73.957527,11211.0,519.0,3000000.0,3023370001.0,North Side-South Side,42500341
,M,M04,3.0,Oasis Community Garden (Hellâs Kitchen),511-519 W. 52nd Street,0.115,HPD,Hell's Kitchen,10th & 11th Avenue,40.766411,-73.991989,10019.0,135.0,1087777.0,1010817502.0,Clinton,42500342
B425,B,B01,34.0,Olive Garden,21-25 Olive Street,0.179,DPR,,Active,40.713243,-73.938822,11211.0,481.0,3000000.0,3029200033.0,East Williamsburg,42500343
M321A,M,M03,2.0,Open Road Park (LES),404-16 East 12th Street,0.45899999999999996,DPR,East Village,Active,40.729801,-73.98305699999999,10009.0,34.0,1000000.0,1004390010.0,East Village,42500344
M354,M,M03,2.0,Orchard Alley,350-54 East 4th Street,0.22399999999999998,DPR,East Village,Active,40.721472,-73.978275,10009.0,2601.0,1000000.0,1003730027.0,Lower East Side,42500345
B024,B,B01,,Orient Grove,Metropolitan Ave. and Orient Ave.,0.149,DPR,,,,,,,,,,42500346
B521,B,B05,37.0,Oriental Garden,369-371 Barbey Street & 326-328 Jerome St,0.188,DPR,East New York,Active,40.673773,-73.88776800000001,11207.0,1150.0,,,East New York,42500347
M365,M,M10,9.0,Our Little Green Acre,275-277 West 122nd Street,0.052000000000000005,DPR,,Active,40.807871999999996,-73.951693,10027.0,222.0,1000000.0,1019280105.0,Central Harlem South,42500348
,X,X07,10.0,P.S. / M.S. 20,3050 Webster Avenue,0.008,DOE,,East 220 & Mosholu Prky,40.870002,-73.878875,10467.0,425.0,2086851.0,2033300001.0,Norwood,42500349
,B,B06,39.0,P.S. 107 - Rainbow Garden,1301 8th Avenue,0.023,DOE,,,40.663251,-73.981289,11215.0,167.0,3026517.0,3011010001.0,Park Slope-Gowanus,42500350
,M,M04,0.0,P.S. 11,320 West 21st Street  NY NY 10011,,DOE,Chelsey,8th & 9th Avenue,40.744349,-74.000253,10011.0,89.0,1013260.0,1007440024.0,Hudson Yards-Chelsea-Flatiron-Union Square,42500351
,M,M04,3.0,P.S. 111,440 W. 53rd Street,,DOE,Hell's Kitchen,,40.765878,-73.988823,10019.0,133.0,1026740.0,1010620003.0,Clinton,42500352
,M,M12,10.0,P.S. 115M,586 W. 177th Street,0.161,DOE,,,40.846542,-73.93520500000001,10033.0,261.0,1063228.0,1021330040.0,Washington Heights South,42500353
,B,B18,45.0,P.S. 119,3829 Avenue K,,DOE,,,40.625662,-73.938265,11210.0,734.0,3215816.0,3077860001.0,Flatlands,42500354
,Q,Q07,20.0,P.S. 120Q - Millenium Garden,58-01 136th Street,0.01,DOE,Flushing,58th & 59th Streets,40.745526,-73.829309,11355.0,80301.0,4139491.0,4063730001.0,Queensboro Hill,42500355
,B,B16,41.0,P.S. 137,121 Saratoga Avenue,0.735,DOE,Bed-Stuy,,40.682458000000004,-73.917088,11233.0,373.0,3040878.0,3015100001.0,Ocean Hill,42500356
,X,X09,18.0,P.S. 138X,2060 Lafayette Avenue,1.345,DOE,,,40.822665,-73.85336600000001,10473.0,74.0,2022289.0,2036090016.0,Soundview-Castle Hill-Clason Point-Harding Park,42500357
,Q,Q06,0.0,P.S. 139Q,93-06 63rd Drive,,DOE,,,40.72814,-73.863582,11374.0,693.0,4072457.0,4030950050.0,Rego Park,42500358
B442,B,B05,37.0,P.S. 149 - Artsy Bloom Community Garden,365-67 Wyona Street,0.057,DPR,East New York,Developed,40.669564,-73.892328,11207.0,1158.0,3000000.0,3037750024.0,East New York (Pennsylvania Ave),42500359
,B,B16,37.0,P.S. 155,1355 Herkimer Street,0.6890000000000001,DOE,,,40.677415,-73.908734,11233.0,369.0,3042263.0,3015520043.0,Ocean Hill,42500360
,X,X04,16.0,P.S. 156 Garden,750 Concourse Village West,0.046,DOE,,,40.823174,-73.923326,10451.0,61.0,2002454.0,2024430079.0,East Concourse-Concourse Village,42500361
,B,B12,39.0,P.S. 164 - Stepping Into the New Millenium,4211 14th Avenue,0.069,DOE,,,40.637485999999996,-73.985955,11219.0,232.0,3135976.0,3056000001.0,Borough Park,42500362
,B,B12,44.0,P.S. 180 - Our Secret Garden,5601-23 16th Avenue  Brooklyn NY 11204,,DOE,,,40.627029,-73.989672,11204.0,470.0,3130809.0,3054920001.0,Borough Park,42500363
,B,B17,45.0,P.S. 181K - Garden Club,1023 New York Avenue,,DOE,,,40.648215,-73.946374,11203.0,856.0,3327776.0,3049040010.0,East Flatbush-Farragut,42500364
,M,M10,9.0,P.S. 185/208M,20 W. 112th Street,,DOE,Upper West Side,5th & Lenox Avenue,40.798511,-73.949251,10026.0,186.0,1051410.0,1015950015.0,Central Harlem South,42500365
X330,X,X03,16.0,P.S. 186 - Day Treatment Program,745 Jennings Street,0.06,DPR,,Active,40.831804,-73.89839599999999,10459.0,151.0,2000000.0,2029620062.0,Morrisania-Melrose,42500366
,B,B01,34.0,P.S. 19K - Kid's Garden,"325 South 3rd Street Brooklyn, NY 11211",,DOE,Williamsburg,Keap & Rodney,40.709647,-73.95465,11211.0,527.0,3063188.0,3024230001.0,North Side-South Side,42500367
,Q,Q04,0.0,P.S. 19Q,"99th Street and Roosevelt Avenue.  Queens, NY 11368",,DOE,Corona,"98th, 41st Avenue",,,,,,,,42500368
,M,M10,0.0,P.S. 200,2599 7th Avenue.  NY NY 10039,,TPL/DOE,Central Harlem,150th St,40.824714,-73.936841,10039.0,236.0,1060198.0,1020160100.0,Central Harlem North-Polo Grounds,42500369
,M,M10,9.0,P.S. 207/149,34 W. 118th Street,,DOE,,,40.80247,-73.94671600000001,10026.0,190.0,1051434.0,1016010001.0,Central Harlem South,42500370
,B,B17,45.0,P.S. 208,"4801 Avenue D  Brooklyn, NY 11234",,TPL/DOE,,E 48th & 49th Street,40.642031,-73.931151,11203.0,840.0,3105680.0,3047690025.0,East Flatbush-Farragut,42500371
,X,X05,0.0,P.S. 226 Garden,1950 Sedgwick Avenue,,DOE,,corner of West Burnside & Sedgwick,40.856586,-73.916198,10453.0,249.0,2096465.0,2032220100.0,University Heights-Morris Heights,42500372
,X,X06,15.0,P.S. 23,2175 Washington Avenue,,DOE,,,40.853423,-73.894463,10457.0,395.0,2090472.0,2030370079.0,Claremont-Bathgate,42500373
,B,,0.0,P.S. 235,"525 Lenox Road, Brooklyn NY 11203",,DOE,North Flatbush,E 39th st,40.654703999999995,-73.941089,11203.0,814.0,3107846.0,3048440001.0,East Flatbush-Farragut,42500374
,M,M10,0.0,P.S. 242,"134 West 122nd Street, NY, NY 10027",,DOE,Central Harlem,"121st & 122nd, 6th & 7th Avenue",40.8063,-73.948013,10027.0,220.0,1057683.0,1019060011.0,Central Harlem South,42500375
,B,B08,0.0,P.S. 243 - Weeksville School,1580 Dean Street,,DOE,Crown Heights,Troy Avenue & Bergen Street,40.676094,-73.935688,11213.0,309.0,3035761.0,3013470001.0,Crown Heights North,42500376
,X,X06,15.0,P.S. 246,2641 Grand Concourse,,DOE,,,40.865593,-73.894758,10468.0,401.0,2013830.0,2031680027.0,Bedford Park-Fordham North,42500377
,B,B11,44.0,P.S. 247K,7000 21st Avenue,0.04,DOE,,,40.612272999999995,-73.986713,11204.0,258.0,3157466.0,3061740036.0,Bensonhurst West,42500378
,B,B14,40.0,P.S. 249,18 Marlborough Road,,DOE,,,40.64971,-73.96604599999999,11226.0,506.0,3116438.0,3050750001.0,Flatbush,42500379
,B,B01,34.0,P.S. 250,108 Montrose Avenue,0.005,DOE,,,40.707104,-73.945475,11206.0,505.0,3071199.0,3030600001.0,East Williamsburg,42500380
,B,B17,41.0,P.S. 268,133 E. 53rd Street,0.035,DOE,,,40.657131,-73.92801800000001,11203.0,866.0,3100292.0,3046230028.0,Rugby-Remsen Village,42500381
,B,B06,0.0,P.S. 27 / M.S. 826,27 Huntington Street Brooklyn. NY 11231,,DOE,,Hicks Street & Columbia Street,40.677564000000004,-74.005166,11231.0,59.0,3008342.0,3005250001.0,Carroll Gardens-Columbia Street-Red Hook,42500382
,X,X01,8.0,P.S. 30X,S/E/C Brook Avenue & E. 141 Street,0.207,DOE,,,,,,,,,,42500383
,B,B14,45.0,P.S. 315K,2310 Glenwood  Rd.,,DOE,,,40.633232,-73.954655,11210.0,772.0,3205780.0,3075510026.0,Flatbush,42500384
M113,M,M03,2.0,P.S. 361 - The Children's Garden,East 12th Street,0.027999999999999997,DPR,East Village,Active,,,,,,,,42500385
,B,B06,39.0,P.S. 372@834 / The Children's School,219 First Street,,DOE,,Carrol Street,40.675628,-73.98563399999999,11215.0,119.0,3395604.0,3004550001.0,Park Slope-Gowanus,42500386
,X,X05,0.0,P.S. 396 / M.S. 390 X,"1930 Andrews Avenue, Bronx NY 10453",,TPL/DOE,Kingbridge Heights,Burnside & University,40.854701,-73.913197,10453.0,24502.0,2014692.0,2032160002.0,University Heights-Morris Heights,42500387
,B,B17,40.0,P.S. 399,2707 Albemarle Road,0.505,DOE,,,40.648044,-73.951891,11226.0,824.0,3117396.0,3051110001.0,Erasmus,42500388
,M,M12,0.0,P.S. 4 - Duke Ellington Harmony Garden,500 West 160th Street,,DOE,Harlem,,40.834899,-73.941085,10032.0,245.0,1062792.0,1021180022.0,Washington Heights South,42500389
,B,B05,42.0,P.S. 4 at P.S. 843,530 Stanley Avenue,0.023,DOE,East New York,,40.657212,-73.888852,11207.0,1104.0,3324010.0,3043690001.0,East New York,42500390
,Q,Q12,28.0,P.S. 48Q,155-02 108th Avenue,,DOE,,,40.694119,-73.797003,11433.0,254.0,4216099.0,4101440042.0,South Jamaica,42500391
,Q,Q05,0.0,P.S. 49Q,79-15 Penelope Avenue,0.006999999999999999,DOE,,Corner of Penelope & 79th Street,40.719071,-73.875437,11379.0,663.0,4069253.0,4029900045.0,Middle Village,42500392
B417,B,B05,37.0,P.S. 4K - Paradise Garden,676-696 Glenmore Avenue,0.3,DPR,East New York,Active,40.674778,-73.885228,11207.0,1150.0,3000000.0,3040000010.0,East New York,42500393
,M,M04,0.0,P.S. 51,520 West 45th Street  NY  NY 10036,,DOE,Clinton Hill,10th & 11th Avenue,40.762060999999996,-73.995307,10036.0,129.0,1000000.0,1010730040.0,Clinton,42500394
B485,B,B05,42.0,P.S. 53,522 Bradford Street,0.062,DPR,East New York,Active,40.666063,-73.89050300000001,11207.0,1126.0,3000000.0,3038090038.0,East New York (Pennsylvania Ave),42500395
,B,B14,40.0,P.S. 6 - Operation Push,2242-62 Bedford Avenue,,DOE,,,40.649347,-73.955793,11226.0,794.0,3117230.0,3051030079.0,Erasmus,42500396
,X,,0.0,P.S. 63 X,"1261 Franklyn Avenue.  Bronx, NY 10456",,DOE,Morrisania,169th & Fulton Avenue,,,,,,,,42500397
,X,X01,17.0,P.S. 65 - Garden Club,677 East 141st,0.034,DOE,,Cypress & Powers,,,,,,,,42500398
,B,B02,35.0,P.S. 67 - Charles Dorsey School,51 St. Edwards Street,,DOE,,Between Park & Mrytle,40.695633,-73.978215,11205.0,2901.0,3332507.0,3020390002.0,Fort Greene,42500399
,B,B02,33.0,P.S. 753K @ The Bklyn. School for Career Development,372 Schermerhorn Street,0.032,DOE,Boerum Hill,475 State & 3rd Avenue,40.686419,-73.979444,11217.0,39.0,3000600.0,3001740009.0,DUMBO-Vinegar Hill-Downtown Brooklyn-Boerum Hill,42500400
M356,M,M10,9.0,P.S. 76 - Garden of Perserverance,203 W. 120th Street   NY NY 10027,0.057,DPR,Harlem,Active,40.80598,-73.951098,10027.0,220.0,1000000.0,1019260027.0,Central Harlem South,42500401
,B,B06,33.0,P.S. 77K @ P. S 902K,62 Park Place,0.023,DOE,Park Slope,6th & 5th Avenue,40.678983,-73.976497,11217.0,12902.0,3259250.0,3009410050.0,Park Slope-Gowanus,42500402
,Q,,0.0,P.S. 86Q,87-41 Parsons Boulevard.,,DOE,,87th Avenue,40.708898,-73.803938,11432.0,448.0,4438678.0,4097740001.0,Briarwood-Jamaica Hills,42500403
,Q,Q05,26.0,P.S. 9 - Enis Garden,58-74 57th Street,,DOE,,,40.718934999999995,-73.91220799999999,11378.0,535.0,4059130.0,4026310106.0,Maspeth,42500404
,B,B08,35.0,P.S. 9 - Winston Robins Memorial Garden,"80 Underhill Avenue  Broolyn, NY   11328",,DOE,Prospect Heights,Bergan & Street Marks,40.678297,-73.965541,11238.0,205.0,3028204.0,3011450026.0,Prospect Heights,42500405
,X,X10,0.0,P.S. 9 X,"230 East 183rd Street, Bronx NY 10458",,DOE,Grand Concourse,Ryer & Valentine Avenue,40.857067,-73.89893599999999,10458.0,38301.0,2013561.0,2031500010.0,Fordham South,42500406
,Q,Q10,28.0,P.S. 96Q - Garden of Hope,130-01 Rockaway Boulevard.,,DOE,So. Ozone Park,130th & Lincoln,40.674991,-73.808371,11420.0,180.0,4253028.0,4116940027.0,South Ozone Park,42500407
,M,M12,10.0,P.S./I.S. 176,4862 Broadway,,DOE,,W 204 / Academy St,40.866706,-73.923948,10034.0,291.0,1064900.0,1022340007.0,Marble Hill-Inwood,42500408
,M,,0.0,P.S./I.S. 217 - Rooselvelt Island School,645 Main Street,,DOE,Roosevelt Island,,40.763894,-73.947916,10044.0,23802.0,1084848.0,1013730001.0,Lenox Hill-Roosevelt Island,42500409
,B,B02,33.0,Pacific High School,112 Schermerhorn Street,,DOE,Boerum Hill,Boerum Place & Smith Streets,40.690145,-73.989132,11201.0,43.0,3000533.0,3001690009.0,DUMBO-Vinegar Hill-Downtown Brooklyn-Boerum Hill,42500410
X285,X,X01,8.0,Padre Plaza (Success Garden),541-545 E. 139th Street,0.36700000000000005,DPR,,Active,40.807883000000004,-73.917885,10454.0,39.0,2000000.0,2022670063.0,Mott Haven-Port Morris,42500411
,B,B05,37.0,Pagans Garden (Linwood Street Block Association),992 Sutter Avenue,0.034,HPD,,At Linwood Street,40.671292,-73.882217,11208.0,1164.0,3089804.0,3040500121.0,East New York,42500412
,X,X01,17.0,Palmas del Caribe (Eagle Avenue Community Garden),869 Eagle Avenue,0.24100000000000002,TPL,Melrose,,40.822057,-73.90848100000001,10456.0,71.0,2125885.0,2026190018.0,Melrose South-Mott Haven North,42500413
,M,M11,8.0,Papos Garden,218-220 E. 119th Street,0.034,TPL,East Harlem,2nd & 3rd,40.799617,-73.937963,10035.0,188.0,1000000.0,1017830038.0,East Harlem North,42500414
,X,X02,18.0,Paradise on Earth Garden,1101-1105 Fox Street,0.252,NYRP,,East 167th Street,40.826640000000005,-73.893877,10459.0,125.0,2117571.0,2027180052.0,Morrisania-Melrose,42500415
,M,M03,2.0,Parque De Tranquilidad,314-318 East 4th Street,0.08199999999999999,TPL,East Village,Avenues C & D,40.722038,-73.97961,10009.0,2601.0,1000000.0,1003730010.0,Lower East Side,42500416
,X,X01,17.0,Passages Academy,511 E. 149th Street & 511 E. 150th Street,,DOE,,,40.81478,-73.914459,10455.0,71.0,2088127.0,2022760001.0,Melrose South-Mott Haven North,42500417
,B,B03,41.0,Patchen Avenue United Block Association,49 Patchen Avenue,0.055,TPL,Bed-Stuy,,40.690708,-73.927603,11221.0,387.0,3000000.0,3016230004.0,Stuyvesant Heights,42500418
B500,B,B03,41.0,Patrick Van Doren Pocket Park,123 Malcolm X Avenue,0.039,DPR,Bed-Stuy,Active,,,,,,,,42500419
,R,R01,,Pavilion Horticultural Garden,Brownell Street #11,,PRI,,Brownell St & Tompkins St,,,,,,,,42500420
M367,M,M11,8.0,Peaceful Valley,50-52 East 117th Street,0.052000000000000005,DPR,East Harlem,Active,40.800487,-73.943961,10035.0,184.0,1000000.0,1016220050.0,East Harlem North,42500421
M350,M,M03,2.0,Peachtree Garden,236-238 East 2nd Street,0.12,DPR,East Village,Active,40.72149,-73.98216,10009.0,2202.0,1000000.0,1003850052.0,Lower East Side,42500422
,Q,Q11,19.0,Pembroke Avenue Community Garden (Van Nostrand Court Garden),E/S Pembroke Avenue,0.095,NYRP,,N/O Little Neck Pkwy.,,,,,,,,42500423
,B,B04,34.0,People's Garden (Youth City Little League),1237-1241 Broadway,0.172,TPL,Bed-Stuy,Greene & Bushwick Avenues,40.691653,-73.925825,11221.0,395.0,3000000.0,3032830004.0,Bushwick South,42500424
B517,B,B16,,Phoenix Community Garden (formerly Somers Street),Corner of Fulton & Somers Street,,DPR,,Active,,,,,,,,42500425
M299,M,M11,8.0,Pleasant Village Community Garden,342-353 Pleasant Avenue. /502 E. 119th Street,0.38,DPR/HPD,East Harlem,Active,,,,,,,,42500426
B531,B,B03,,Plenty: Food For All,Hunterfly Place and Atlantic Avenue,0.062,DPR,,Active,,,,,,,,42500427
B504,B,B18,42.0,Ponderosa Garden,664 East 105th Street,0.092,DPR,,Active,40.649609000000005,-73.897009,11236.0,974.0,3229489.0,3081730066.0,Canarsie,42500428
,B,B02,33.0,Poplar Street Community Garden,Poplar Street,0.027999999999999997,DOT,Brooklyn Heights,At Hicks St,,,,,,,,42500429
B509,B,B05,37.0,Poppa & Momma Jones Historical Garden,337 Van Siclen Avenue,0.138,DPR,East New York,Active,40.671728,-73.890057,11207.0,1152.0,,,East New York,42500430
B486,B,B16,42.0,Powell Street Block Association - Powell St,633 Powell Street,0.019,DPR,Brownsville,Active,40.658459,-73.901057,11212.0,920.0,3000000.0,3038580001.0,Brownsville,42500431
B516,B,B16,42.0,Powell Street Garden-Livonia,Powell Street,0.45899999999999996,DPR,Brownsville,Active,,,,,,,,42500432
B426,B,B01,34.0,Powers Street Garden,276-278 Powers Street,0.115,DPR,,Active,40.712955,-73.93972099999999,11211.0,481.0,3000000.0,3029220020.0,East Williamsburg,42500433
B487,B,B16,41.0,Preston Community Garden,1711 Park Place,0.58,DPR,Brownsville,Active,40.671827,-73.920811,11233.0,363.0,3000000.0,3014620057.0,Ocean Hill,42500434
Q475,Q,Q06,29.0,Project Eden,Kessel Street,0.10800000000000001,DPR,Forest Hills,Active,,,,,,,,42500435
B423,B,B01,,Project Roots Garden,94 - 110 Walton St.,0.172,DPR,,,40.702631,-73.948631,11206.0,507.0,3061348.0,3022500014.0,Bedford,42500436
B506,B,B05,42.0,Prophecy Garden Church of God of Prophecy,43-69 Malta Street,0.505,DPR/HPD,East New York,Active,40.659475,-73.89560300000001,11207.0,1130.0,3397031.0,3042950065.0,East New York (Pennsylvania Ave),42500437
B524,B,B08,35.0,Prospect Heights Community Farm,252-256 St. Marks Avenue,0.193,TPL,Prospect Heights,Active,40.678319,-73.967513,11238.0,205.0,3000000.0,3011520020.0,Prospect Heights,42500438
M384,M,M11,9.0,Pueblo Unido,1659 Madison Avenue,0.054000000000000006,DPR,East Harlem,Active,40.796473999999996,-73.9474,10029.0,17402.0,1000000.0,1016160053.0,East Harlem South,42500439
X317,X,X03,17.0,Rainbow Block Association.,379 East 159th Street,0.174,DPR,Melrose,Active,40.823085999999996,-73.914947,10451.0,141.0,2000000.0,2024060029.0,Morrisania-Melrose,42500440
,B,B08,41.0,Ralph-Lincoln Service Center,1652-1654 St. John's Place,0.163,TPL,Brownsville,,40.670152,-73.923242,11233.0,359.0,3389921.0,3013870039.0,Crown Heights North,42500441
X325,X,X09,15.0,Randall Community Garden (Taylor Soundview Block Association),Randall Avenue,0.23199999999999998,DPR,,Active,,,,,,,,42500442
B488,B,B03,36.0,Red Gate Garden,604 Marcy Avenue,0.086,DPR,Bed-Stuy,Active,40.693796,-73.94890500000001,11206.0,253.0,3000000.0,3017660043.0,Bedford,42500443
B126B,B,B07,,Red Hook Farm/Added Value,558 Columbia Street,,DPR,Red Hook,Active,40.672562,-74.00869200000001,11231.0,53.0,3000000.0,3006070001.0,Carroll Gardens-Columbia Street-Red Hook,42500444
B489,B,B01,34.0,Red Shed Garden (GREC),Humbolt Street,0.12300000000000001,DPR,,Active,,,,,,,,42500445
M352,M,M03,2.0,Relaxation Garden (Suen Dragon Garden),209 Avenue B,0.063,DPR,East Village,Active,40.728590000000004,-73.978637,10009.0,28.0,1000000.0,1003950008.0,Lower East Side,42500446
M316,M,M10,9.0,Rev. Linnette C. Williamson Memorial Park,65-67 W. 128th Street,0.057,PRI,West Harlem,Active,40.809144,-73.942758,10027.0,208.0,1089069.0,1017260011.0,Central Harlem North-Polo Grounds,42500447
M071B,M,M12,7.0,RING Garden - Riverside Inwood Neighborhood Garden,1835 Riverside Drive,0.115,DPR,Inwood,Active,,,,,,,,42500448
X335,X,X07,15.0,Risse Street Community Garden (Triangle Park),2 East Mosholu Parkway,0.6940000000000001,DPR,,Active,,,,,,,,42500449
X245,X,X06,,River Garden,1086 East 180th Street,0.44,DPR,West Farms,Active,40.842203999999995,-73.876529,10460.0,220.0,2000000.0,2040030001.0,East Tremont,42500450
M072,M,M09,0.0,Riverside Valley Community Garden,Riverside Park/138th Street,0.115,DPR,Hamilton Heights,Active,,,,,,,,42500451
,X,X04,16.0,Roberto Clemente Community Garden,1272-1280 Shakespeare Avenue,0.254,TPL,Highbridge,Shakespeare Avenue & W 169th St,40.839017,-73.922729,10452.0,211.0,2000000.0,2025060087.0,Highbridge,42500452
M375,M,M11,8.0,Rodale Pleasant Park Community Garden,437-39 East 114th Street/448-450 East 115th Street,0.225,NYRP/DPR,East Harlem,Active,,,,,,,,42500453
,B,B14,40.0,Rogers/Tilden/Veronica Place Block Association,2601-2603 Tilden Avenue.,0.158,TPL,,,40.646757,-73.952588,11226.0,794.0,3000000.0,3051280070.0,Erasmus,42500454
M370,M,M03,2.0,Sam & Sadie Koenig Garden,237 E. 7th Street,0.04,DPR,East Village,Active,40.723877,-73.97835,10009.0,2602.0,1000000.0,1003770069.0,Lower East Side,42500455
B490,B,B13,47.0,Santos White Garden,2110 Mermaid Avenue,0.141,DPR,Coney Island,Active,40.576242,-73.988189,11224.0,326.0,3000000.0,3070580009.0,Seagate-Coney Island,42500456
X332,X,X02,17.0,Schomburg Satellite Academy H.S.,869 E 164th Street,0.032,DPR,Morrisania,Active,40.82331,-73.899259,10459.0,12901.0,2005219.0,2026900137.0,Longwood,42500457
,Q,Q14,31.0,Seagirt Community Garden,3003 Seagirt Boulevard.,0.138,NYRP,Far Rockaway,B30th & B31st,40.595964,-73.763133,11691.0,992.0,4000000.0,4158060004.0,Hammels-Arverne-Edgemere,42500458
B530,B,B03,,Seasons of Vision,9-11 Rochester Avenue,0.083,DPR,,Active,40.678834,-73.927378,11233.0,299.0,3000000.0,3017030002.0,Crown Heights North,42500459
M332,M,M03,1.0,Secret Garden,293-297 East 4th Street,0.05,DPR,East Village,Active,40.722464,-73.98056899999999,10009.0,2601.0,1000000.0,1003870040.0,Lower East Side,42500460
,B,B13,47.0,Senior Citizens Block Association of Mermaid Avenue,2917-2923 West 20th Street,,HPD,Coney Island,Mermaid & Surf Avenues,40.575996999999994,-73.986807,11224.0,326.0,3000000.0,3070600047.0,Seagate-Coney Island,42500461
,M,M09,7.0,Serenity Gardens,522 West 146th Street,0.091,TPL,Hamilton Heights,,40.826254,-73.947965,10031.0,229.0,1000000.0,1020770043.0,Hamilton Heights,42500462
,B,B05,42.0,Sheffield South Block Association,673 Sheffield Avenue,0.087,TPL,East New York,,40.660557,-73.893175,11207.0,1128.0,3000000.0,3042980065.0,East New York (Pennsylvania Ave),42500463
,X,X04,16.0,Sheridan Manor Community Garden,1340 Sheridan Avenue,0.195,DOE,,,40.837275,-73.913574,10456.0,17902.0,2094533.0,2028300017.0,East Concourse-Concourse Village,42500464
,X,X04,16.0,Sherman Avenue Community Garden,953-955 Sherman Avenue,0.11,TPL,,164th & 165th Streets,40.828252,-73.91911,10456.0,18302.0,,,East Concourse-Concourse Village,42500465
B491,B,B05,37.0,Shield of Faith,79-85 Montauk Street,0.172,DPR,East New York,Active,,,,,,,,42500466
B502,B,B03,36.0,Shiloh Garden Inc.,323-325 Monroe Street,0.07400000000000001,DPR,,Active,40.686076,-73.94538100000001,11216.0,265.0,3000000.0,3018140045.0,Bedford,42500467
B476,B,B16,41.0,Shma Yisrael,2084-90 Pacific Street,0.145,DPR,Bed-Stuy,Active,40.675795,-73.915903,11233.0,303.0,3000000.0,3014400012.0,Ocean Hill,42500468
,B,B08,41.0,Society for Preservation of Weeksville,1688-1696 Bergen Street,0.35100000000000003,DCA,,Troy & Utica Avenue,40.674828999999995,-73.926867,11213.0,307.0,3389901.0,3013560120.0,Crown Heights North,42500469
,X,X01,17.0,South Bronx High School - Unity Garden,701 St. Ann's Avenue,0.023,DOE,Melrose,Westchester Avenue & 156th St,40.81825,-73.91103000000001,10455.0,71.0,2001153.0,2023590240.0,Melrose South-Mott Haven North,42500470
B519,B,B03,34.0,Spencer Street Community Garden,230A Spencer Street,0.043,DPR,Bed-Stuy,Active,40.691602,-73.954593,11205.0,241.0,3000000.0,3017620067.0,Bedford,42500471
X345,X,X01,,St. Anns Block Garden Association,666-68 St. Ann's Avenue,0.028999999999999998,DPR,,Active,40.817078,-73.91149399999999,10455.0,75.0,,,Melrose South-Mott Haven North,42500472
B492,B,B05,37.0,St. John Cantius Parish,476-484 New Jersey Avenue,0.183,DPR,East New York,Active,40.667535,-73.893737,11207.0,1156.0,3000000.0,3037890035.0,East New York (Pennsylvania Ave),42500473
,B,B08,41.0,St. Johns Place Renaissance Garden,1642 St. John's Place,0.08900000000000001,TPL,Brownsville,Ralph & Buffalo Avenue,40.670169,-73.92352,11233.0,359.0,3000000.0,3013870034.0,Crown Heights North,42500474
,B,B08,35.0,St. Marks Avenue/ Prospect Heights Community Garden,207 St. Marks Avenue,0.075,TPL,Prospect Heights,Vanderbilt & Carlton Avenues,40.678709999999995,-73.96929,11238.0,163.0,3000000.0,3011440063.0,Prospect Heights,42500475
B501,B,B16,41.0,St. Marks Block Association,"455,457-63 Ralph Avenue",0.196,DPR,Brownsville,Active,,,,,,,,42500476
B503,B,B03,36.0,Stars of Hope Community Garden,213 Madison Street,0.033,DPR,,Active,40.684681,-73.95099599999999,11216.0,245.0,3000000.0,3018170057.0,Bedford,42500477
B505,B,B16,41.0,Sterling Community Group,"1701,1713,1715 Sterling Place",0.11599999999999999,DPR,Brownsville,Active,,,,,,,,42500478
B383,B,B05,,Success Garden,461 Williams Avenue,0.9179999999999999,DPR,,,40.664659,-73.897865,11207.0,1130.0,3000000.0,3038020001.0,East New York (Pennsylvania Ave),42500479
,M,M03,2.0,Suffolk Street Community Garden,174 Suffolk Street,0.053,NYRP,Lower East Side,Houston & Stanton,40.720933,-73.98508299999999,10002.0,3001.0,1000000.0,1003500005.0,Chinatown,42500480
M319,M,M09,0.0,Sugar Hill Park,339-341 Edgecombe Avenue.,0.069,DPR,,Active,40.826462,-73.941811,10031.0,231.0,1000000.0,1020530099.0,Hamilton Heights,42500481
B411,B,B06,39.0,Summit Street Community Garden,281-283 Columbia Street,0.10300000000000001,DPR,Red Hook,Active,40.682578,-74.003869,11231.0,51.0,3000000.0,3003530002.0,Carroll Gardens-Columbia Street-Red Hook,42500482
B525,B,B03,41.0,Sumpter Community Garden,182 Sumpter Street,0.057,DPR,,Active,40.680246000000004,-73.917693,11233.0,379.0,3000000.0,3015250028.0,Stuyvesant Heights,42500483
B427,B,B01,34.0,Sunshine Community Garden,99-100 McKibben Street,0.115,DPR,Williamsburg,Active,40.70508,-73.944013,11206.0,505.0,3000000.0,3030790038.0,East Williamsburg,42500484
,B,B13,47.0,Surf Side Garden,2829 Surf Avenue,,HPD,Coney Island,At W. 29th Street,40.572905,-73.994741,11224.0,342.0,3000000.0,3070520056.0,Seagate-Coney Island,42500485
X296,X,X04,16.0,Taqwa Community Farm,90 W 164th Street,0.49,DPR,Highbridge,Active,40.832559,-73.92830500000001,10452.0,189.0,2000000.0,2025110090.0,Highbridge,42500486
,X,X04,16.0,Target (Bronx) Community Garden (Anderson Avenue Community Garden),1001 Anderson Avenue,0.253,NYRP,Highbridge,W 164th & W 165th Streets,40.832284,-73.927189,10452.0,189.0,2003145.0,2025080043.0,Highbridge,42500487
,B,B03,36.0,Target (Brooklyn) Community Garden (Bedford Avenue Block Association Garden),931-933 Bedford Avenue,0.092,NYRP,Bed-Stuy,DeKalb & Willoughby Avenue,40.692060999999995,-73.95563100000001,11205.0,241.0,3414278.0,3017620019.0,Bedford,42500488
,M,M11,8.0,Target East Harlem Community Garden,415-421 East 117th Street,0.163,DPR,East Harlem,1st Avenue & E 117th St,40.79645,-73.934347,10035.0,178.0,1000000.0,1017110008.0,East Harlem North,42500489
,M,M11,8.0,Target East Harlem Community Garden (St. Mark's Monastery 2),429-433 East 117th Street,0.142,NYRP,East Harlem,1st & Pleasant Avenues,40.796357,-73.934119,10035.0,178.0,1000000.0,1017110013.0,East Harlem North,42500490
B445,B,B01,34.0,Ten Eyck Houses HDFC,15-17 Ten Eyck Street,0.114,DPR,East Williamsburg,Active,40.709598,-73.95007199999999,11206.0,513.0,3000000.0,3027910046.0,North Side-South Side,42500491
,B,B05,42.0,Thomas Jefferson High School,642-648 Blake Avenue,0.036000000000000004,DOE,East New York,Pennsylvania Avenueune,40.667777,-73.89516400000001,11207.0,1156.0,3000000.0,3037880031.0,East New York (Pennsylvania Ave),42500492
B416,B,B05,37.0,TLC Sculpture Park,271 Glenmore Avenue,0.172,DPR,East New York,Active,40.672509000000005,-73.90063599999999,11207.0,1144.0,3000000.0,3036990038.0,East New York (Pennsylvania Ave),42500493
X331,X,X05,14.0,Townsend Garden (Mt. Hope Housing Co.),1735 Walton Avenue,0.15,DPR,Mt. Eden,Active,40.846592,-73.910938,10453.0,22701.0,2000000.0,2028490068.0,Mount Hope,42500494
,M,M03,2.0,Toyota Childrens Learning Garden (Coradan Evaeden),603 East 11th Street,0.037000000000000005,NYRP,East Village,Avenues B & C,40.727311,-73.979074,10009.0,28.0,1000000.0,1003940067.0,Lower East Side,42500495
,B,B03,,Tranquility Farm,267 Throop Ave.,,HPD,,,40.694666,-73.943253,11206.0,283.0,3000000.0,3017610074.0,Stuyvesant Heights,42500496
,X,X06,15.0,Tremont Community Garden,S/W/C E. 178th St. & LaFontaine Avenue.,0.057,TPL,,E. 178th & LaFontaine Avenue,,,,,,,,42500497
B496,B,B05,0.0,"Triple R/Relaxation, Reflection, Revenue (Victoria Garden)",613 Hendrix Street,,DPR,East New York,Active,40.666544,-73.887795,11207.0,1124.0,3000000.0,3040750107.0,East New York,42500498
Q477A,Q,Q01,0.0,Two Coves Garden,30th Avenue & Main Avenue & Astoria Boulevard,0.77,DPR,,Active,,,,,,,,42500499
B515,B,B05,,United Community Centers Site I,285 - 303 New Lots Avenue,0.546,DPR,,,40.660713,-73.895655,11207.0,1130.0,3085844.0,3038540013.0,East New York (Pennsylvania Ave),42500500
,B,B03,36.0,United Herkimer Garden Club,97 Herkimer Street,0.055,TPL,,Nostrand & Bedford Avenue,40.679691,-73.950448,11216.0,247.0,3000000.0,3018600062.0,Crown Heights North,42500501
M298,M,M10,21.0,Unity Garden,53-55 West 128th Street,0.129,DPR,West Harlem,Active,40.809031,-73.942488,10027.0,208.0,1000000.0,1017260014.0,Central Harlem North-Polo Grounds,42500502
,B,B13,47.0,Unity Tower Tenant Association,1917-23 Surf Avenue,0.21,HPD,Coney Island,W 20th St,40.575064000000005,-73.985961,11224.0,326.0,3000000.0,3070600032.0,Seagate-Coney Island,42500503
B493,B,B05,37.0,Upon This Rock Community Garden,2556 Pitkin Avenue.,0.081,DPR,East New York,Active,40.674543,-73.877838,11208.0,1194.0,,,East New York,42500504
M343,M,M03,0.0,Vamos Sembrar: For the Beloved and Otherwise Forgotten,198 Avenue B,0.023,DPR,,Active,40.728258000000004,-73.97890100000001,10009.0,34.0,1000000.0,1004060038.0,East Village,42500505
,B,B03,,Van Buren Street Garden,49 Van Buren Street,,HPD,,,40.690036,-73.943557,11221.0,263.0,3000000.0,3017910063.0,Bedford,42500506
B495,B,B03,34.0,Vernon (Throop Avenue Block Assoc.),253 Throop Avenue,0.039,DPR,Bed-Stuy,Active,40.695178999999996,-73.943354,11206.0,283.0,3000000.0,3017610004.0,Stuyvesant Heights,42500507
B508,B,B03,36.0,Vernon New Harvest,42-48 Vernon Avenue,0.165,DPR,Bed-Stuy,Active,40.694461,-73.95053399999999,11206.0,253.0,3000000.0,3017580031.0,Bedford,42500508
B494,B,B03,34.0,Vernon T&T Block Assoc.,200 Vernon Ave.,0.046,DPR,Bed-Stuy,Active,40.695196,-73.944122,11206.0,25901.0,3048852.0,3017600039.0,Bedford,42500509
B523,B,B13,47.0,Victory Garden,Shell Road,0.174,DPR/DEP,Coney Island,Active,,,,,,,,42500510
X010C,X,X03,20.0,Victory Garden - Crotona Park,Fulton Avenue / 171 St / Crotona Park South,0.46299999999999997,DPR,,Active,,,,,,,,42500511
B518,B,B03,,Victory Gardens Group,953 Gates Avenue,0.152,DPR,,,40.688836,-73.92789,11221.0,387.0,3000000.0,3016320046.0,Stuyvesant Heights,42500512
,M,M11,9.0,Villa Santurce Jardinera - 112th Street,74 E. 112th Street,0.045,HPD,East Harlem,Park & Madison Avenues,40.796895,-73.945424,10029.0,17402.0,1000000.0,1016170038.0,East Harlem South,42500513
,M,M11,9.0,Villa Santurce Jardineras - Park Avenue,Park Avenue,0.09,HPD,East Harlem,111th & 112th Streets,,,,,,,,42500514
X347,X,X01,17.0,Vogue Community Garden,431 E. 156th Street,0.047,DPR,Melrose,Active,40.820531,-73.914448,10455.0,69.0,,,Melrose South-Mott Haven North,42500515
B456,B,B08,35.0,Walt L. Shamal Community Garden,1093-1095 Dean Street,0.149,DPR,Crown Heights,Active,40.677263,-73.953835,11216.0,221.0,3029967.0,3012050049.0,Crown Heights North,42500516
,X,X07,11.0,Walton High School,2780 Reservoir Avenue,0.046,DOE,Kingsbridge Heights,Strong & 196th Street,40.870293,-73.898309,10468.0,409.0,2015241.0,2032470070.0,Van Cortlandt Village,42500517
X272A,X,X01,8.0,Wanaqua Garden,460-464 E. 136th Street,0.228,DPR,,Active,40.807068,-73.92209799999999,10454.0,25.0,2000000.0,2022800036.0,Mott Haven-Port Morris,42500518
,B,B06,38.0,Warren-St.Marks Community Garden,623 Warren Street,0.057,TPL,Park Slope,b/w 4th & 5th avenue,40.680820000000004,-73.97940200000001,11217.0,12901.0,3000000.0,3009340066.0,Park Slope-Gowanus,42500519
X088A,X,X09,18.0,Waterfront Community Garden,2008 Gildersleeve Avenue,0.27,DPR,Soundview,Active,40.809962,-73.85070999999999,10473.0,4.0,2000000.0,2034480033.0,Soundview-Castle Hill-Clason Point-Harding Park,42500520
B538,B,B03,36.0,Welcome Home Garden,681 Halsey Street,0.059000000000000004,DPR,Bed-Stuy,Developed,40.684676,-73.924963,11233.0,383.0,3000000.0,3016630082.0,Stuyvesant Heights,42500521
M306,M,M07,8.0,West 104th Street Garden,6-10 W. 104th Street/ 14-18 W. 104th Street,0.38,DPR,Upper West Side,Active,,,,,,,,42500522
M368,M,M09,9.0,West 111th Street People's Garden,1036-53 Amsterdam Avenue,0.109,DPR,Upper West Side,Active,40.803674,-73.96336600000001,10025.0,199.0,1000000.0,1018830028.0,Morningside Heights,42500523
M362,M,M10,9.0,West 124th Street Community Garden,West 124th Street and 5th Avenue,0.046,DPR,,Active,,,,,,,,42500524
M380,M,M10,,West 131st Street Community Garden,34 West 131st Street,,DPR,Harlem,Active,40.81071,-73.940702,10037.0,208.0,1000000.0,1017280054.0,Central Harlem North-Polo Grounds,42500525
M296,M,M10,9.0,West 132nd Street Garden,108-114 W. 132nd Street,0.171,DPR,Central Harlem,Active,40.812453999999995,-73.942882,10027.0,226.0,1000000.0,1019160039.0,Central Harlem North-Polo Grounds,42500526
,M,M12,7.0,West 181st Street Beautification Project,814 West 181st Street,0.046,DOT,Washington Heights,Pinehurst/181st,40.851073,-73.93889399999999,10033.0,265.0,1064299.0,1021770105.0,Washington Heights South,42500527
M307,M,M07,6.0,West 87th Street Park & Garden,55-57 West 87th Street,0.09,DPR,Upper West Side,Active,40.786617,-73.97035600000001,10024.0,173.0,1000000.0,1012010006.0,Upper West Side,42500528
,B,B08,36.0,Westbrook Memorial Garden,1233 Pacific Street,0.11800000000000001,TPL,Crown Heights,Bedford & Nostrand Avenues,40.677792,-73.95186600000001,11216.0,315.0,3000000.0,3012000070.0,Crown Heights North,42500529
,R,R01,49.0,Westervelt Community & Family Garden,143 Westervelt Avenue,0.011000000000000001,NYRP,,At Curtis Pl near Hamilton Avenue,40.644391999999996,-74.084861,10301.0,7.0,5000000.0,5000310003.0,West New Brighton-New Brighton-St. George,42500530
M322,M,M09,7.0,William A. Harris Garden,NWC of 153rd St & St. Nicholas,,DPR,,Active,,,,,,,,42500531
M328,M,M10,9.0,William B. Washington Memorial Garden,321-325 West 126th Street,0.09,DPR,,Active,40.811116,-73.9513,10027.0,215.0,1000000.0,1019530023.0,Central Harlem North-Polo Grounds,42500532
,B,B05,37.0,Williams Avenue Community Garden (formerly Shaw Block Association),88 Williams Avenuenue,0.126,NYRP,,Liberty & Atlantic,,,,,,,,42500533
X164A,X,X02,,Wishing Well Garden,886 Reverend James A. Polite,0.35100000000000003,DPR,,Active,,,,,,,,42500534
,B,BK4,34.0,Woodbine St. Block Assoc.,146 Woodbine Street,0.057,TPL,,,40.692534,-73.916722,11221.0,415.0,3000000.0,3033590028.0,Bushwick South,42500535
X333,X,X04,16.0,Woodycrest Community Garden,949 Woodycrest Avenue,0.012,DPR,Highbridge,Active,40.83116,-73.929149,10452.0,189.0,2000000.0,2025110030.0,Highbridge,42500536
